Name,Cuisine,City,State,Country,Latitude,Longitude,Phone,Restaurant ID,Ranking,Uniq Id
907 Grill,American,Benicia,CA,United States,38.051655,-122.15738,(707) 746-0505,3292387,1 of 63,5c3bf98cf92cdfca49b78e1023b03b9c
A&W Restaurant,American,Roseville,CA,United States,38.72728,-121.27206,(916) 782-3822,933701,,946dc5b5d11170ffa1b099c94be8147b
Aerobistro,American,Los Angeles,CA,United States,33.94699,-118.386,+1 310-215-1000,5555619,"1,361 of 8,530",1e102197d29caea0297802f3eb2a6286
Alamar Restaurant and Marina,American,Sacramento,CA,United States,38.67489,-121.626,916-922-0200,366484,"573 of 1,732",7645869113386faf1fa2cad6b39a5f63
"Alpine Inn- CLOSED",American,Alpine,CA,United States,32.83545,-116.76598,(619) 445-5172,484518,,929eea5b199066c8f14dda6ec25ba08d
Amerigo's Market & Eatery,American,Roseville,CA,United States,38.749336,-121.24857,(916) 772-8777,934231,,74cc31002a2f0072ccc17ae53484cc28
Applebee's,American,Chula Vista,CA,United States,32.603268,-117.07957,619-665-2961,5929057,105 of 393,8ab55ae500dc890cb22eebd7d70a4ba8
Applebee's,American,San Jose,CA,United States,37.31633,-121.97577,408-446-8370,347472,"768 of 1,898",99a9d55a7159662d0b6bc7c30dafe5b9
Applebee's,American,Sacramento,CA,United States,38.63661,-121.50299,(916) 928-8488,366497,"304 of 1,732",40643d436ffa486a3a7f595246079f23
Applebee's (Arden),American,Sacramento,CA,United States,38.59611,-121.41868,(916) 564-5296,486658,"814 of 1,732",67a21ecf9e348584a48a0c40a62c552b
ARCADIA: Modern American Steakhouse,American,San Jose,CA,United States,37.33056,-121.88869,(408) 278-4555,342845,"117 of 1,898",d5e34e61be5cb0e0ed8d744caad69ba7
Armadillo Willy's,American,San Jose,CA,United States,37.25028,-121.8586,(408) 224-7427,486639,"396 of 1,898",d5dde95ede4fbcd8e94541fc1c741efc
Arthur Henry's Supper Club & Ruby Room,American,Sacramento,CA,United States,38.552208,-121.46905,Website,5857008,"326 of 1,732",cbd33791ea5f09ee83fb32ae7f4d01ac
Au Coquelet Cafe Restaurant,American,Berkeley,CA,United States,37.87187,-122.27057,510-845-0433,538534,228 of 592,ddf7e7b6c63755d6c05192f3de22fb08
Bacio To-Go,American,Chico,CA,United States,39.71981,-121.8242,530-345-7787,3418049,104 of 275,86ee5caaca0648e1808ead7bf21eb9cb
Beach Hut Deli,American,South Lake Tahoe,CA,United States,38.911224,-120.003876,(530) 541-7873,1535597,44 of 104,49e9a2bc7fc9b78ee9faa7744e6f45e9
BGrill By BOA,American,Los Angeles,CA,United States,33.94159,-118.40853,,6153197,"2,586 of 8,530",189bd097639a2ebc0eae06e508496d5d
Black Bear Diner,American,Salinas,CA,United States,36.697987,-121.66264,831-449-1545,522785,19 of 281,f2465635f201cbaf6c0ae621dbb47ccb
Black Bear Diner,American,Roseville,CA,United States,38.78279,-121.26573,,3785797,54 of 368,12189d8eec8d598b1731c2abefec4a3a
Bouchee Cafe & Deli,American,La Quinta,CA,United States,33.71079,-116.29461,442-666-3296,1536450,41 of 99,cca4aa1e11305da9b7bed03f5c1204b0
boudin's bakery and cafe,American,Roseville,CA,United States,38.767204,-121.26588,,3354024,62 of 368,567201729ef8700f3282f8bc6c62380e
Brass Rail Inn,American,Redway,CA,United States,40.11788,-123.82025,Website,2182501,5 of 7,9d34e24d277cb8e864498306c2f7ea96
Britannia Arms of Almaden,American,San Jose,CA,United States,37.258,-121.87696,408.266.0550,540411,"683 of 1,898",41da607eefb41deb7281774f1fe987cf
Buffalo Wild Wings,American,San Jose,CA,United States,37.29284,-121.99066,Website,3823266,"101 of 1,898",ae2e1e82b137c74076aed17c89d7be5e
Buffalo Wild Wings,American,Antioch,CA,United States,37.961708,-121.73335,,3513462,47 of 127,e8d945e5de40a55c386a00b8a7c964a8
Buffalo Wild Wings Corona,American,Corona,CA,United States,33.823296,-117.51584,(951) 739-9464,1894646,108 of 299,159a8db7414ccb824cdb0e9fb16b3142
Casa Garden Restaurant,American,Sacramento,CA,United States,38.540337,-121.47791,916-452-2809,2668805,"146 of 1,732",e7ca1c1a1943aa15f454e83643f953fc
Central Park Restaurant,American,Pasadena,CA,United States,34.14208,-118.15044,626-449-4499,3164308,98 of 580,19ba0f7a8067eb7fc88ce05e2aef8f80
Chandelier Steak House,American,Montrose,CA,United States,34.21137,-118.23987,818-236-3699,4695064,31 of 50,cad79065ea61d2840c273e5befaa7bc3
Chilli's #503,American,San Jose,CA,United States,37.24935,-121.87503,Website,3416882,,1b6bde606ad4e25af480b61933d42f52
Cinnabar Hills Golf Club,American,San Jose,CA,United States,37.17024,-121.75726,Website,3383969,"469 of 1,898",fd3c10845b4a4f5ea0cb24cc0c22a73c
City Diner,American,San Jose,CA,United States,37.25025,-121.87837,408-269-5490,787190,"369 of 1,898",97cca2458143799db8bc853af92ab392
Claim Jumper,American,San Bernardino,CA,United States,34.06738,-117.28229,(909) 383-1818,2330324,21 of 275,d7a523f90901f9f5ded875e37855703a
Claim Jumper,American,La Mesa,CA,United States,32.7798,-117.00953,619-469-3927,556010,28 of 187,f1900d5e5a700c88aff8b36417c48fad
Clearman's Galley,American,San Gabriel,CA,United States,34.13022,-118.07392,(626) 446-0100,344290,8 of 201,7905260e4bc9019696f09228265d853e
Coco's Bakery Restaurant,American,Sacramento,CA,United States,38.59796,-121.42405,916-922-6741,3573887,"696 of 1,732",c55238ae470db5c753d5c6069e48d85d
Crepevine,American,Berkeley,CA,United States,37.87814,-122.26911,,3506770,25 of 592,62039e52cb063a157d1a3eaed25afaad
Crocker Club,American,Los Angeles,CA,United States,34.0477,-118.24935,(213) 239-9099,4988655,,a323248b44b119f4c2be6ff0cee65d50
Delizie Cucina & Vino,American,San Carlos,CA,United States,37.50712,-122.26049,650-486-1539,3753188,70 of 112,3a192fd230618f2388206d0659a4d4f0
Denny's,American,Marina,CA,United States,36.695858,-121.80289,,3953067,16 of 49,afb67ee48d1b5e0dd4da0b71e613be41
Denny's,American,Salinas,CA,United States,36.65652,-121.63625,831-424-9743,826593,104 of 281,95715dd89da510bfb420c7d42e6180bb
Early Bird,American,Willow Creek,CA,United States,40.91921,-123.61919,530 629 4431,1887570,1 of 6,c73b8bc993e0b5343f9c863fe7e0c06e
Eggs N Things,American,Simi Valley,CA,United States,34.279,-118.73859,805.527.0055,538733,17 of 228,99abb83c1954cde23687cfdffa246e15
El Cajon Bistro & Bakery,American,El Cajon,CA,United States,32.795,-116.93574,,3845785,11 of 287,c0e8c6cfc895aba7d8d128b4fc3984f3
Eternal Tree House Cafe,American,Redcrest,CA,United States,40.401283,-123.95021,1(707)722-4262,4421451,1 of 1,2085c00b78c9b7e8e28f2af95442240a
Family House of Pancakes,American,Chula Vista,CA,United States,32.62887,-117.08864,619-425-5133,514316,2 of 393,365f31c75855ce6b8ae670d4e4ff0222
Fat City Bar & Cafe,American,Sacramento,CA,United States,38.583427,-121.505196,9164466768,366538,"58 of 1,732",6e5b9351fc9b65c2e0b7fc5322b0f88c
Fatapple's Restaurant and Bakery,American,Berkeley,CA,United States,37.882366,-122.2742,(510) 526-2260,377677,96 of 592,90cdc1430d6b8eff5aed4f9d88164ee4
Firehouse No.1,American,San Jose,CA,United States,37.336094,-121.8936,408-287-6969,1809935,"14 of 1,898",7a4551b7f7f1c3d919a75d906ceca9e1
First Awakenings,American,Salinas,CA,United States,36.67573,-121.6551,831-784-1125,450115,1 of 281,c9c8cf50fa533ecf0b8c0df0d967df3a
FIVE,American,Berkeley,CA,United States,37.869316,-122.26851,510-225-6055,1865699,65 of 592,ac5dcceeb5be6ceeeb9feac4907d85b0
Flintridge Proper,American,La Canada Flintridge,CA,United States,34.198997,-118.1884,818-790-4888,4011030,10 of 54,10a5679c1435116c08af850b23813ee0
French Po Boys,American,Sacramento,CA,United States,38.54685,-121.42805,(916) 739-1671,3625352,"552 of 1,732",8b639e6c2da9720cc8d646b78ad7a371
"Garden City Cafe- CLOSED",American,San Jose,CA,United States,37.32213,-121.97072,(408) 244-4443,486636,,ce9a075df188f50e33fa24d8309e3abc
Grill on the Alley,American,San Jose,CA,United States,37.332424,-121.88926,408-294-2244,347385,"23 of 1,898",0dd823c9455eac06fde0998060107fa7
Guasti Homestyle cafe,American,Chino,CA,United States,34.00773,-117.68921,(909) 627-5970,3456687,7 of 149,9f3fe9eee343028f9dc1000443069b8f
Hill Street Cafe,American,La Canada Flintridge,CA,United States,34.20447,-118.20029,Website,3292649,12 of 54,5c2281cfa0581a4a28de0afa71fa54b7
Home Run Inn,American,Beverly Hills,CA,United States,37.71964,-122.47166,(773) 432-9696,3804685,,c386af2877fd68a9bbe01dddcd2dab60
Hometown Buffet,American,Bell,CA,United States,33.98002,-118.187355,323-771-9091,538531,4 of 37,a83220a4f7701e27d4ec6cf5529170e4
Icon Restaurant & Lounge,American,Sacramento,CA,United States,38.56966,-121.49039,916-492-0004,526201,,a77ee7df8cb696c1dda9710403a7bb7f
IHOP,American,Chula Vista,CA,United States,32.60645,-117.07995,,3729079,87 of 393,13fc6db1a1df761b1a16ccb22e5a8aee
Islands,American,Marina del Rey,CA,United States,33.981174,-118.46332,310-822-3939,352689,38 of 116,f6dbf8e9774445deb7f3c4deb516ea0f
Islands Restaurant,American,Manhattan Beach,CA,United States,33.90541,-118.39569,(310) 546-4456,367460,56 of 177,4adfd308ce9cd7c2a622001e1233bd01
Jacks Urban Eats 20th St,American,Sacramento,CA,United States,38.57369,-121.48121,916-444-0307,494749,"188 of 1,732",073f3895da70c433b646e3f20ca1ca00
Jenny's Diner,American,Highland,CA,United States,34.11246,-117.20877,,3256832,16 of 64,005b545555b3c220f44bfa581cc19465
Johnson's Landing,American,Salton City,CA,United States,33.317314,-115.95737,760-394-0069,2491366,4 of 4,1dae60b5e374d361ec0bdbb3ea0340c0
Jolly Kone,American,Middletown,CA,United States,38.71112,-122.61192,,3750744,5 of 14,7ee836c5ff1c2e95a0c0da8791fcd0c2
Kelly's,American,Chino,CA,United States,34.03365,-117.68674,(909) 591-8770,814615,52 of 149,b3e44ff7de0537c0d41a7dd1f25842dc
La Parroquia,American,Chula Vista,CA,United States,32.62113,-116.96586,,3541925,119 of 393,7bcacf74d15eed0420d6cebecff032d2
La Villa Kitchen,American,San Dimas,CA,United States,34.073025,-117.82869,909-599-5005,539342,10 of 73,2ca810cf3057fba50dbe25ae09822e55
Lago D'Argento Pizzeria,American,Los Angeles,CA,United States,34.105896,-118.27266,(323) 300-5500,4716460,"3,815 of 8,530",f1b163cd37c2f04f2f06da0530dd7fb7
Lake Murray Cafe,American,La Mesa,CA,United States,32.77958,-117.03791,619-433-0180,799117,39 of 187,29836f11fffa53348061b512b2a7c3dc
Landings Restaurant,American,Los Angeles,CA,United States,34.20259,-118.48593,,5888565,"2,777 of 8,530",575d18ed09361b057d2386a3e935e095
Larsen's Grill,American,Simi Valley,CA,United States,34.28291,-118.76933,805-522-4800,1907168,6 of 228,a17f63203b7b302e7231eb52871b4c86
Legends & Icons,American,Palm Desert,CA,United States,33.761467,-116.30081,Website,2630726,156 of 234,72138ce298c8d9ad936ef4804a46e51a
Lemonade,American,Los Angeles,CA,United States,34.05372,-118.25053,(213) 628-0200,4941091,"3,002 of 8,530",74667103dcc5dfbfa7183b23dcd9c168
Lido Bar & Grill,American,Carmichael,CA,United States,38.636787,-121.32161,(916) 944-8243,506018,8 of 90,44210b3292ab322066d76f2157a368c2
Limelight Bar Cafe & Card Room,American,Sacramento,CA,United States,38.57213,-121.46552,(916) 446-2236,520380,"640 of 1,732",2fca8902eb88249332c2f82dfb6d418f
Local 123,American,Berkeley,CA,United States,37.868305,-122.29182,Website,3610387,248 of 592,3a471887d8870860741bf8254b808300
Los Gatos Cafe,American,Los Gatos,CA,United States,37.22838,-121.98122,(408) 354-4647,347386,3 of 129,22a85a5f9b0e09172fa57404abdd6dc5
Lucky Cafe,American,Sacramento,CA,United States,38.574856,-121.479034,916-442-9620,513443,"721 of 1,732",78e42d52df5dd2155ac4ea914d1211cd
Lumberjack's Restaurant,American,Sacramento,CA,United States,38.58433,-121.41532,916-646-9900,1941263,"466 of 1,732",f80bf0f3fe4ab47fa8f3c968297859a3
Mac's Old House,American,Antioch,CA,United States,38.00498,-121.76231,,3419988,35 of 127,3d436fbd03bf33151e3abac58ed46be3
Madlon's,American,Big Bear City,CA,United States,34.26045,-116.85995,909-585-3762,509262,2 of 13,5ac3ffba92169d30538a088c96b4fb87
Main Street Bar & Grill,American,Clearlake,CA,United States,38.95864,-122.64913,707-994-6450,1743056,2 of 23,352a0e7f9e787dbb55cb3b35bd4c38cd
Manhattan Beach Post,American,Manhattan Beach,CA,United States,33.88522,-118.410774,(310) 545-5405,4065439,3 of 177,42097f8e469fe5ee5e4a5bdbe290b6d1
Marie Callender's,American,Chico,CA,United States,39.72687,-121.80744,530-345-8800,3605757,146 of 275,aa7526cc86fecb047a2c22111868ca3b
Marie Callender's,American,Chino,CA,United States,34.03353,-117.68665,909-613-0434,468042,64 of 149,8eec3f0bc8309bdbe56a2fe574842b57
"Market Club- CLOSED",American,Sacramento,CA,United States,38.56359,-121.50812,916-498-9953,630571,,8333d615a3f45fe1c34ab61993d64f48
Mickey Fine Pharmacy & Grill,American,Beverly Hills,CA,United States,34.06532,-118.37671,310-271-6123,4261070,106 of 269,b37fa8554b37c843ba8c4cf8889ccb62
Mighty Kong Cafe,American,Sacramento,CA,United States,38.54064,-121.45043,916-231-3631,1886271,"487 of 1,732",c2d8e587cf17c340b43ddade29774982
Mimi's Restaurant,American,San Jose,CA,United States,37.29164,-121.99228,,1084176,"699 of 1,898",5abf327bfd635a32f86521d4a4f86aaa
Moss Landing Cafe,American,Moss Landing,CA,United States,36.791225,-121.78381,831-633-3355,825761,1 of 9,44a71daab656c58f0a00f372eba484d3
Mountainside Grill,American,Mammoth Lakes,CA,United States,37.65101,-119.03728,(760) 934-0601,418081,61 of 73,4ae0c8cb3d302c7d57bd8c6a5e19af42
Mr Pickle's Sandwich Shop Incorporated,American,Roseville,CA,United States,38.76122,-121.31022,(916) 782-7085,918091,,ff82988f7353a11d8475529fd46760bf
Naked Cafe,American,Solana Beach,CA,United States,32.99134,-117.273,858-259-7866,854730,5 of 66,23f2b6745fcfd672fbe4a8305ab56cfc
Nola Po'Boy and Gumbo Kitchen,American,Concord,CA,United States,37.98669,-122.00996,925-849-5682,4085325,93 of 256,acc04b5cd23959ac90825f16f92a4a78
Old 40 Kitchen &Grill,American,Truckee,CA,United States,39.328796,-120.24977,530-582-4040,3460355,28 of 95,47b1f22ffe0a7282ba99c8fdbbe0ac4c
Old Wagon Wheel Saloon and Grill,American,San Jose,CA,United States,37.33661,-121.89399,(408) 971-9346,3476127,"173 of 1,898",3420805b5b2cb873f4046f483421006a
Orange Julius,American,Roseville,CA,United States,38.77247,-121.26587,(916) 784-9715,922262,,34b65c0d580f38486bbe7530de57f6ae
Pacific Street Cafe,American,Roseville,CA,United States,38.75127,-121.28453,916-782-5673,918561,90 of 368,da82deca665c0efd1e0238bc78c7e4f2
Padaro Beach Grill,American,Carpinteria,CA,United States,34.40688,-119.5482,805-566-9800,2194947,1 of 61,26a3266060459bd2334008a951d885f1
"Pancake Heaven Restaurant, Inc.",American,San Fernando,CA,United States,34.28981,-118.43241,(818) 898-0026,542769,13 of 80,d49d6b1b641413702fcfdd8e8eea3b98
Peppery Gar and Brill,American,Sonora,CA,United States,37.97554,-120.34965,,1776262,11 of 70,954f7eccbcfe7bc7b9c2756964bef9f7
Philly's Best,American,San Dimas,CA,United States,34.10661,-117.8231,909-305-8811,3962337,29 of 73,d05490eeb9814d1202ffa6dde14e7ddc
Philz Coffee,American,San Jose,CA,United States,37.333782,-121.88672,Website,3806952,"142 of 1,898",4562a19d30013b4e71ba75f6af46e201
"Pine House Cafe and Tavern, Mt. Laguna, CA",American,Mount Laguna,CA,United States,32.8655,-116.42027,,3207478,2 of 2,525403d1e9aa054791937aca6d761afb
Plan Check Kitchen,American,Los Angeles,CA,United States,34.07764,-118.36147,310-473-3222,5772964,"1,426 of 8,530",cf6df7412c5459af438ad650b5bd7ed6
PlumpJack Cafe,American,Olympic Valley,CA,United States,39.19751,-120.23563,530.583.1578,459028,5 of 26,78ffa7b6eae8c6838cb65b1ae33a72c1
Polly's Pies,American,Long Beach,CA,United States,33.81985,-118.18502,(562) 595-5651,2154369,234 of 958,9453c85b672c94dbc7fa273a5083a26d
Pour House,American,Chico,CA,United States,39.7608,-121.84456,Website,2309135,40 of 275,5fd8654fc821711fe55ee95dbfd94bed
Rancho Cielo / Drummond Culinary Academy,American,Salinas,CA,United States,36.73309,-121.60806,(831) 444-3521,2535837,2 of 281,e44812d75f26592990824e6bc7b9d96a
Ray's Downtown Deli,American,San Bernardino,CA,United States,34.0991,-117.29415,9098857772,2174052,96 of 275,b948edb1940c5fef5186606f12845cf0
Red Lobster,American,La Mesa,CA,United States,32.77608,-117.01097,619-463-4449,545063,50 of 187,e5624910386834dd3b4d7cd7f2dad21d
Red Lobster,American,Sacramento,CA,United States,38.59114,-121.4153,916-921-6011,492395,"351 of 1,732",e3a0b409e3e9a4cbd8fb2ece7c568f6a
River City Saloon,American,Sacramento,CA,United States,38.58359,-121.50391,916-443-6852,1449735,"229 of 1,732",457fffefd30ac9411960b5eeb1e670cf
Riverside Clubhouse,American,Sacramento,CA,United States,38.5608,-121.49962,916-448-9988,339878,"233 of 1,732",4cff14261a898c9ef0a237271d64e753
Roady's,American,San Dimas,CA,United States,34.10665,-117.80875,,2589231,14 of 73,cad9fb4edf3c007f557c8892424c2780
Roxy Restaurant,American,Sacramento,CA,United States,38.5745,-121.40681,916-489-2000,641317,"143 of 1,732",35492f166e90c60fcddb832d3328949f
Ruby's Diner,American,Cabazon,CA,United States,33.922626,-116.80627,951-849-3850,2196942,1 of 26,61dd418b591c249e61bc1fa669a02890
Sac's Tasty Hot Dogs,American,Vallejo,CA,United States,38.105923,-122.21169,707-642-2442,2079058,15 of 159,1af5e1511cba5cb49244b4b07459ce4a
Sangs Cafe,American,Salinas,CA,United States,36.67658,-121.65546,831-424-6012,450202,23 of 281,a2038d73d029f2218196e18c5ee52615
Shari's,American,Sacramento,CA,United States,38.49561,-121.5223,(916) 422-0366,852060,"725 of 1,732",fc63ff7b2e34f44916a815abf52ba191
Sharkee's,American,Manhattan Beach,CA,United States,33.90039,-118.41756,,1048231,83 of 177,54cd0f3533b83789357a39a935315f93
Simmzy's,American,Manhattan Beach,CA,United States,33.88505,-118.40986,310-546-1201,1631001,5 of 177,f338c995730a79626ca350ae1b4b8fcf
Sizzler,American,San Dimas,CA,United States,34.10701,-117.82071,,3227716,12 of 73,8b3184adc2db25cd728b90e91acac021
Sizzler,American,Bellflower,CA,United States,33.87289,-118.1179,562-925-2582,542636,20 of 113,dd91859427691df59f9b42a3c6802e2d
"Smokehouse Grill at Adventure Peak- CLOSED",American,South Lake Tahoe,CA,United States,38.940258,-119.936775,775-586-2353,1868243,,78a6f063aca9e821ab2e17daea0beae1
Sneakers Pub & Grill,American,San Carlos,CA,United States,37.5068,-122.2609,(650) 802-0177,469027,41 of 112,632c953eed4bb82c86302097955224d5
Sonny's Hideaway,American,Los Angeles,CA,United States,34.12081,-118.20343,323-255-2000,4763349,"1,233 of 8,530",3e7ce90e4f51e0e7099834212e625926
Sonoma Chicken Coop,American,San Jose,CA,United States,37.33611,-121.89255,408 2874098,347387,"113 of 1,898",30fff17aa16d1438fe6b1b0064e12621
South Beverly Grill,American,Beverly Hills,CA,United States,34.066162,-118.3991,310-550-0242,348351,22 of 269,89b0399252e07838ac12d52f5812d97c
South Harbor Waterfront Restaurant & Bar,American,South San Francisco,CA,United States,37.662895,-122.38403,(650) 589-1641,1822248,12 of 138,4903ff9e2743c8d716acc286186d8916
Southern Kitchen,American,Los Gatos,CA,United States,37.22137,-121.98086,408-354-7515,347388,13 of 129,4ad8ff6c1e979efd3c15935dc691e2b9
Spice Creek Cafe,American,Chico,CA,United States,39.72882,-121.841095,+1 530-891-9951,1058539,1 of 275,2cfb315f07b1ba681919b18f319ab29b
Stacked Restaurants Cerritos,American,Cerritos,CA,United States,33.86398,-118.09102,562-376-4300,4711879,5 of 138,e1c30c457b8593880043a1fec0229e2a
Stella,American,Truckee,CA,United States,39.3241,-120.16932,530-582-5655,1628021,2 of 95,e74b0e1c8ff3dd14eadb1b94033a54d1
Sugar Barge Restaurant & Bar,American,Bethel Island,CA,United States,38.02652,-121.61321,925.684.8585,538542,2 of 6,1050519f67c4d9862fbf43b2ed4c882f
Taste of Jamaica Restaurant & Sports Bar,American,Sacramento,CA,United States,38.495808,-121.47183,+(1)916-414-8354,5893060,"376 of 1,732",86d9d90b832ba0cb7e0511b8d3d3b986
TGI Friday's,American,El Cajon,CA,United States,32.73962,-116.9417,619-670-7400,2608626,73 of 287,cddafcb412176bf348dbef9452d3c25e
The Boiling Crab,American,Sacramento,CA,United States,38.50036,-121.4324,(916) 394-9166,2258187,"375 of 1,732",783a8878b2555a3a302140b0ea830a6d
The Boxing Donkey,American,Roseville,CA,United States,38.751305,-121.28435,916-797-3665,1901498,53 of 368,53b952c2317837d7bfeb6d36813cbde9
The Breakfast Place,American,San Jose,CA,United States,37.30884,-121.95183,,4018202,"235 of 1,898",65cafdcc2baf24c181825476da9721bf
The Castle,American,Manhattan Beach,CA,United States,33.89396,-118.39609,,3568084,115 of 177,fbbb0e44c4b2bc9e7041dfa62f4a4c35
The Cheesecake Factory,American,Chula Vista,CA,United States,32.62111,-116.96697,619-421-2500,2547551,28 of 393,ca4f8c4ae074ee094230ae618a551a41
The Cheesecake Factory,American,Marina del Rey,CA,United States,33.980362,-118.45924,310-306-3344,350090,3 of 116,34c7d46a6ef9536322709c5616f2f807
The Couch Sports Lounge,American,Citrus Heights,CA,United States,38.66375,-121.2915,Website,2628929,9 of 140,1bcceeebecc7fb27f0f836c3346f9c5b
The Diner,American,Los Gatos,CA,United States,37.22967,-121.98207,408-354-4886,2371669,20 of 129,5fcc6226aab39e8df1b039d3a614ddc1
The Distillery,American,Sacramento,CA,United States,38.57416,-121.479164,(916) 443-8815,339815,"516 of 1,732",3b6b3a58bd89448f72bd81076dfaeda7
The Escondite,American,Los Angeles,CA,United States,34.04632,-118.24227,(213) 626-1800,4473018,"1,171 of 8,530",4e76b82a337381fbb0eb845d797decf9
The Farm of Beverly Hills,American,Beverly Hills,CA,United States,34.07067,-118.40269,310-273-5578,348160,17 of 269,422409eeaf59520af8b8d72eccbb6aa5
The Firehouse Sports Bar and Restaurant,American,Bakersfield,CA,United States,35.31816,-119.08868,Website,2655083,273 of 700,f46db11d9209e480b40c6dd66b129dec
The GodMother,American,Malibu,CA,United States,34.039806,-118.69319,,4450410,39 of 78,d61c81e9e5e889cc8d3a5d422fb82b17
The Habit,American,Solana Beach,CA,United States,32.99573,-117.25462,,3806973,23 of 66,af0060ca70716206c2704d7afa6b3ae3
The Hobbit,American,Valencia,CA,United States,34.44034,-118.56999,,4096544,92 of 164,82d7a9e0aa7ff1e7d1d3fe1b76ea0061
The Local Yolk,American,Manhattan Beach,CA,United States,33.89941,-118.41713,310-546-4407,447924,20 of 177,d687f4c504b1ed4a9319aed8e177bf2c
The Original Pancake House,American,Roseville,CA,United States,38.784637,-121.27263,916-788-3040,598880,51 of 368,7259860e487ddf0061c1f5434a1e87f2
The Porch Restaurant and Bar,American,Sacramento,CA,United States,38.57613,-121.48241,(916) 444-2423,2484429,"89 of 1,732",4b0fc39731e54adcf0149750117e35ff
The Rock,American,Twain Harte,CA,United States,38.03974,-120.23152,,1984588,2 of 14,fc1254e3bcd36b474c595b40cc8079b7
The Sandwich Smith,American,Los Angeles,CA,United States,34.049313,-118.23937,+1 213-628-1888,4825965,,b1dec26418efd56b8329d885a012a8b0
The Village Restaurant,American,Salinas,CA,United States,36.699497,-121.62433,(831) 444-6724,3383437,64 of 281,d0647c58b1505d204dcbca8fc391eeec
The Vineyard,American,Madera,CA,United States,36.95374,-120.05805,559 674 0923,831017,1 of 105,ea29942b871c38a66aa3a23ca2ac619f
The Wow Truck,American,San Jose,CA,United States,37.3041,-121.873,,3686609,,3c39b3e1b52dbb7b0994ddc7e5b2f5fc
Theresa Cheng,American,Chino Hills,CA,United States,33.961067,-117.75607,909 606 1386,521863,,56bcef5ca668fb25224eb54e5c2882f6
Town Restaurant,American,San Carlos,CA,United States,37.50495,-122.25931,650-595-3003,776575,2 of 112,98911628be74b54800ba7b64953a39b9
Trokay,American,Truckee,CA,United States,39.327263,-120.18723,530-582-1040,2316891,4 of 95,d9bad86995570238d8badeb5919876f9
"Twelve + Highland- CLOSED",American,Manhattan Beach,CA,United States,33.88576,-118.409775,(310) 545-1881,1061727,,b9e277999470162c83206544af8d22e6
V Restaurant & Bar,American,Murphys,CA,United States,38.13762,-120.46406,(209) 728-0107,1094416,10 of 32,aa659649cb2f1e8a775eba790440c2f1
Vault Cafe,American,Berkeley,CA,United States,37.84943,-122.27125,510-595-9600,378835,148 of 592,c817bcc00e9a3ab8593dff43d8debda9
Vegi Food INC,American,Berkeley,CA,United States,37.88013,-122.2699,510-548-5244,378709,324 of 592,32c0188c17ba5b9d8a5c301889907e24
Wild Note Cafe,American,Solana Beach,CA,United States,32.991,-117.27038,858-720-9000,522492,34 of 66,7469317c359a87182b0dc12d40ebcd70
Winchell's Donut House,American,Salinas,CA,United States,36.696384,-121.63853,831 770 0731,3953971,,e6e1bccb8f6e214b64518ac65da2ccf0
Wine Cellar,American,Los Gatos,CA,United States,37.223118,-121.98153,408-354-4808,347403,7 of 129,799a84dcf5a41416fd81c658a412a4af
Wolf Creek Restaurant and Bar,American,Markleeville,CA,United States,38.777054,-119.89412,530-694-2150,1524442,3 of 6,a848e58fde48f1b2a65d7e15d36b0c0a
Woods Creek Cafe,American,Jamestown,CA,United States,37.95324,-120.42471,209-984-4001,2078167,1 of 16,1fdf3841abd6092b23e6ab8a36e8e520
Zeytoun,American,San Jose,CA,United States,37.36801,-121.91869,4083929709,2368343,"780 of 1,898",97d2d528579d130d3145c73014ff8d77
Zeytoun Restaurant,American,San Jose,CA,United States,37.331074,-121.89208,408-295-4696,2425882,,263ab67f9a5b5fce10c2aa126d3ca8b8
"Bistro 33 Midtown- CLOSED",American,Sacramento,CA,United States,38.577103,-121.48561,916-233-3633,615036,,5376213ad8f99a8f5af34fb6892b8a8e
Darren's Restaurant & Bar,American,Manhattan Beach,CA,United States,33.88523,-118.41104,310-802-1973,1367681,33 of 177,055c162634170abbd3c491f0ad04080b
Moody's Bistro & Lounge,American,Truckee,CA,United States,39.3284,-120.18417,530-587-8688,506964,10 of 95,06b46c8d3e2be8541556b276a360edd4
Peasant Wine Bistro,American,Los Angeles,CA,United States,34.17253,-118.54883,+1 818-708-7081,4787270,"1,139 of 8,530",7030b09674174e412967916d0d6fa6e8
Tower Bridge Bistro - Embassy Suites Hotel Sacramento,American,Sacramento,CA,United States,38.57997,-121.50626,9163265050,1370573,"94 of 1,732",79a4ccbd53e633bfe236dba1296972a8
Asian Blossom,Asian,Roseville,CA,United States,38.7673,-121.26335,916-787-1223,2618840,58 of 368,64c78e589be5270659626c34fb271b61
Chibiscus Asian Cafe and restaurant,Asian,Los Angeles,CA,United States,34.09801,-118.3504,13239779877,4702202,"1,573 of 8,530",ee7763b5847372704eaae97f3d7ff345
Crunch,Asian,Berkeley,CA,United States,37.870483,-122.26653,(510) 704-1101,4420695,235 of 592,79c2286bc3113144ab853a300939b68b
Drunken Monkey,Asian,Truckee,CA,United States,39.32179,-120.162834,530-582-9755,1640614,27 of 95,a50b0a759416545e9dafc08f402fa91c
Elements Restaurant,Asian,San Jose,CA,United States,37.21136,-121.84801,408-927-8773,446591,"96 of 1,898",78c9bec877d79da586af79c58878a85b
Hibachi Grill & super Buffet,Asian,San Jacinto,CA,United States,33.75861,-116.9587,,3747141,9 of 54,8b50d6ea78af340f8575483db19285ea
"Jack Pot Fast Food- CLOSED",Asian,San Bernardino,CA,United States,34.061974,-117.27871,909.824.1324,514056,,a79f07aa1afe9d66ce558d31ea8497e4
Kaya Tofu & BBQ,Asian,San Carlos,CA,United States,37.512844,-122.26641,(650) 595-9292,1089587,62 of 112,44126ea7aeae51a689c7125241a85fab
Kyusu Burmese restaurant,Asian,San Jose,CA,United States,37.300797,-121.98029,,4151813,"77 of 1,898",056b990570e07050bfd79916044afc69
Min's Dumpling,Asian,Chino Hills,CA,United States,34.01815,-117.7198,,3902563,35 of 125,cb1e830afa12a08bf24bb541067debd4
Pearl House Restaurant,Asian,Citrus Heights,CA,United States,38.680912,-121.32126,916-726-4900,823612,1 of 140,4b61cb07cbcf4bc7e7a14ec6da483f6e
Pei Wei Asian Diner,Asian,Beverly Hills,CA,United States,34.078274,-118.41106,,3973358,160 of 269,ab27bb0d201fbfcae6cacd922b50aa3d
UNCLE Chen Restaurant,Asian,Carpinteria,CA,United States,34.39607,-119.51328,805-566-3334,822806,34 of 61,c38e0517a719cdab963431ebe49e629d
Valentino's Lounge Grill Sushi Bar,Asian,Chula Vista,CA,United States,32.63183,-116.98519,(619) 591-9201,2430095,49 of 393,986ae6fd6c7fbcbaebb5ba1741892833
Wasabi - Asia Bistro and Sushi Bar,Asian,Roseville,CA,United States,38.75249,-121.25201,916.797.8887,6427656,170 of 368,e22c01956c933d596bd96d77d701467c
Angelina's Bakery & Espresso,Bakery,Lakeport,CA,United States,39.044334,-122.91515,Website,3732925,7 of 37,fdb6613fc0f4519983b5dee523e5682b
Apple Alley Bakery,Bakery,Julian,CA,United States,33.07826,-116.60196,760-765-2532,1088566,5 of 25,d3506a3abd4b980424e1970414a8e2fd
Bagel Bakery,Bakery,Salinas,CA,United States,36.667522,-121.67479,831-758-0280,825766,91 of 281,a38dd3944f627fdf487b636b932e07e8
Baked on Oceanview,Bakery,Montrose,CA,United States,34.21156,-118.22792,(818) 249-3587,2479206,25 of 50,960b53cdc15f2eeaf8ec8650afcfa54c
Bijan Bakery,Bakery,San Jose,CA,United States,37.31879,-121.9737,(408) 972-4526,1396547,"12 of 1,898",77cc9495cc61f6dc133d1d9b58aee54e
Blvd Coffee,Bakery,Los Gatos,CA,United States,37.242466,-121.95991,(408) 356-4665,4718712,79 of 129,754999fdaa2dadd50a511e50bae2ccf0
Cafe Pomegranate,Bakery,San Jose,CA,United States,37.33649,-121.88458,(408) 271-8822,847225,"708 of 1,898",1b5c7b15995b1e77f6509c18c392497e
Cake Bake Shop,Bakery,Manhattan Beach,CA,United States,33.89892,-118.41694,(310) 545-2253,4707777,30 of 177,34b82137569144f42efc077f39640820
Capicola's Gourmet Sandwich Co.,Bakery,Torrance,CA,United States,33.7979,-118.341,Website,3536788,18 of 464,8d42b19ba37e3f7522c9225f69dcd987
Corner Bakery Cafe,Bakery,Los Angeles,CA,United States,34.242744,-118.5591,(818) 671-2001,6540487,,c3d8b02f18c893b0745b43e187a0d229
Devine Gelateria & Cafe,Bakery,Sacramento,CA,United States,38.57414,-121.48251,Website,3370727,"37 of 1,732",76b91fbfe40438bc9cf5e8d9c14b813d
Donut Fair,Bakery,Sacramento,CA,United States,38.610165,-121.36892,(916) 487-5715,2396443,"651 of 1,732",62bd4269327f6b9961d97a6b124f6bc5
Fleur de Cocoa,Bakery,Los Gatos,CA,United States,37.22352,-121.98344,408-354-3574,542393,5 of 129,5fff01b1ea477fe038208fdef58be29c
Flower Flour,Bakery,San Jose,CA,United States,37.31035,-121.89698,(408) 279-0843,1150209,"116 of 1,898",92c28a4bade97c555e51c3920a14a5dd
Goldilocks Bakeshop,Bakery,Cerritos,CA,United States,33.85848,-118.08872,(562) 924-5990,785095,31 of 138,241af63413058c294ed6b0a374d0c443
Hooz Donuts,Bakery,San Jose,CA,United States,37.29132,-121.88079,(408) 266-8565,849747,,90e1fb747201a2c06669d00f291d85c1
John's Bagel Deli,Bakery,Simi Valley,CA,United States,34.26874,-118.7614,805-526-8162,2626841,52 of 228,ca0a78d863732bfb8f263f8a9ecb01ca
Josephs bakery,Bakery,Los Angeles,CA,United States,33.73467,-118.2968,Website,4574470,"2,352 of 8,530",fd16ec2748a768b262415ef69e3e2f83
Lido Bakery,Bakery,Manhattan Beach,CA,United States,33.89747,-118.3961,(310) 545-8955,4358860,,369509c7095910c4f1f32b28e8540c91
Lila & Sage Cake & Catering Co,Bakery,Murphys,CA,United States,38.137184,-120.46014,(209) 728-2604,3957726,11 of 32,464fbcf0b9193bba2ecfe8111e8aaeef
Moonside Bakery and Cafe,Bakery,Half Moon Bay,CA,United States,37.46237,-122.42942,650 726 9070,517695,23 of 82,82392fff3cb8586967a98096dcda7b7e
North End Cafe,Bakery,Manhattan Beach,CA,United States,33.89945,-118.417274,(310) 546-4782,824342,8 of 177,f5d5cf848a042f543a76c66e99be3471
Olsen's Danish Village Bakery,Bakery,Solvang,CA,United States,34.59606,-120.14424,(805) 688-6314,1439674,3 of 55,3b9c02d9d09d4f2f4ae574a7a2af7eb6
Rolling Pin Donuts,Bakery,San Bruno,CA,United States,37.62956,-122.41467,(650) 589-9687,3246133,23 of 120,3f3f9a8f275e28726de84ec053ba8c1e
Roscoe Bakery,Bakery,Los Angeles,CA,United States,34.21922,-118.64524,+1 818-835-9269,4887643,,66d1d7da3d7269f850c26f9dd3b6d02b
Simi Donuts,Bakery,Simi Valley,CA,United States,34.28495,-118.71767,805-526-6050,3356034,89 of 228,e76758a653e0a90b305c3e971b905283
SK's Donuts,Bakery,Los Angeles,CA,United States,34.06921,-118.34741,(323) 935-2409,5608773,,53391ceb507848c4a26bba83901d8d34
St Urbain Street Bagels,Bakery,Beverly Hills,CA,United States,34.070877,-118.40288,,3387630,,23c71c5189bd2c99e9d26da2878795bb
Swiss Delices,Bakery,Castro Valley,CA,United States,37.695297,-122.07831,510 881-8669,3205900,23 of 81,ececaa26be3b555a3d5a6c31a8339bb2
Union Bakery,Bakery,South Pasadena,CA,United States,34.11255,-118.15038,626-403-1850,899627,16 of 70,6e761b826df0623a8e8edf43f8e39a1e
Yellow Vase,Bakery,Rolling Hills Estates,CA,United States,33.77066,-118.36741,+1 (310) 541-0013,3661991,12 of 31,11c2304676329553c8ab374e1a89aade
Franks Famous Kitchen and Bakery,Bakery,Glendale,CA,United States,34.198906,-118.22919,818-249-6100,810384,31 of 389,1edfd0cc97a7c8f1e25c93e4c67ee85d
Wellingham's World Champion BBQ,Barbecue,Bellflower,CA,United States,33.88962,-118.1253,(562) 866-9227,3894476,,b1b65e271c6567c10e9bc7dab2167092
B J's BBQ Spot,Barbecue,Banning,CA,United States,33.92564,-116.90051,(951) 922-1044,473049,,bd5a0bccf86082c5959a68432081d3d0
Benny's BBQ,Barbecue,Sacramento,CA,United States,38.53018,-121.47313,9169930229,5827341,,8d43e9a8e4003c388aef400519ecd49c
"Brickhouse BBQ- CLOSED",Barbecue,Kelseyville,CA,United States,38.97779,-122.83755,,4089746,,9b43ca61687aabc00cfb9d63a364eae1
Central Texan BBQ,Barbecue,Castroville,CA,United States,36.76717,-121.75999,(831) 633-2285,818410,6 of 18,6a46b5851e40998d60dd265c57156db8
Everett & Jones Barbecue,Barbecue,Berkeley,CA,United States,37.86966,-122.29225,(510) 548-8261,377667,84 of 592,8ed6f9feb94ab04398bdd896ed8b96be
Famous Dave's barbecue,Barbecue,Bakersfield,CA,United States,35.38125,-119.03941,,4360212,214 of 700,224f867bfd41b1f6a34b00c4fa0330c7
Jeb's Waffles N' Ribs,Barbecue,Kingsburg,CA,United States,36.51791,-119.56317,559-897-5309,864083,22 of 38,858165ae1a983b4eb2be626a843009bb
JR's Texas BBQ,Barbecue,Sacramento,CA,United States,38.50918,-121.47762,916 424 3520,493142,"686 of 1,732",3b72cccc610bcfec314d9b304b3b2f1d
President Restaurant,Barbecue,San Jose,CA,United States,37.27469,-121.88066,408-978-7188,633527,"700 of 1,898",e3f87927b8f306abfa5bd891302cbeb5
"Rosie O'S BBQ- CLOSED",Barbecue,Salinas,CA,United States,36.67252,-121.65457,(831) 794-3434,830002,,eb267078e3032f998ec7af369a06aad1
Salinas City BBQ,Barbecue,Salinas,CA,United States,36.68341,-121.67111,(831) 758-2227,3438537,5 of 281,70f080a24967b4b89b9dd448df963b26
Sandra Dee's Barbeque & Seafood,Barbecue,Sacramento,CA,United States,38.58265,-121.48473,(916) 448-6375,446517,"167 of 1,732",5a44c496020557b0329de6c9e2e03977
T & R Taste of Texa s,Barbecue,Sacramento,CA,United States,38.549778,-121.46703,,3706449,"277 of 1,732",bac083625d00c5af59d86317e32487aa
Zeke's Smokehouse BBQ,Barbecue,Montrose,CA,United States,34.20509,-118.22566,818-957-7045,375578,10 of 50,d2b8aaca4ae891d7bd928d1a72defd12
Affinity Restaurant & Bar,Brewery,San Jose,CA,United States,37.32938,-121.8912,(408) 287-2100,3360285,"408 of 1,898",dfb9d30dd5cb0681c388fbed203596d3
BJ's Brewhouse,Brewery,Salinas,CA,United States,36.717884,-121.65544,Website,2662403,72 of 281,c664109ff7ededaa11a1e39b8175ab29
BJ's Restaurant & Brewhouse,Brewery,San Bruno,CA,United States,37.63628,-122.42089,650-243-4530,1072268,25 of 120,6dad1e57176bff9abbc8bd8a000be54d
Congregation Ale House,Brewery,Pasadena,CA,United States,34.14007,-118.14883,Website,2555973,114 of 580,a2acc9b7c318ac08ae2623c1d77fc5bc
Freehouse,Brewery,Berkeley,CA,United States,37.86921,-122.2544,(510) 647-2300,6535800,,5f5e24c5690be05dc859c4daf8412f3c
Gordon Biersch,Brewery,San Jose,CA,United States,37.366695,-121.9259,Website,4371886,"729 of 1,898",62c842328e46b15d7455a37ac715374e
Gordon Biersch Brewery Restaurant,Brewery,San Jose,CA,United States,37.334785,-121.88865,408-294-6785,342827,"200 of 1,898",11b9c8663c2fd811f9f198024362c486
Hooleys Irish Pub and Grill,Brewery,La Mesa,CA,United States,32.7798,-117.00953,619-713-6900,1520855,24 of 187,a49952ad037af5886cb6dda59bf59844
Mayflower Pub & Grill,Brewery,San Rafael,CA,United States,37.97381,-122.53486,(415) 456-1011,876808,34 of 212,6f9dbbcdf110558573a2e8b562f77ac6
"Pint Size Lounge- CLOSED",Brewery,San Rafael,CA,United States,37.97405,-122.53722,415-457-2673,446740,,2be304a38b9d80ce863377bc2026e722
River City Brewing Company,Brewery,Sacramento,CA,United States,38.58092,-121.50034,(916) 447-2739,339792,"481 of 1,732",8d143e8a2fa237c233d8e0e440eee1ab
Sandy's Pub,Brewery,Olympic Valley,CA,United States,39.19798,-120.21798,530-581-6617,846027,7 of 26,9d6bffdb527283dc2afec5056b159172
Triple Rock Brewery,Brewery,Berkeley,CA,United States,37.87344,-122.26854,,1006860,78 of 592,1f79d975c4a29232ef67a8fb92198cf7
Burgess Brothers' Burgers,Burgers,Sacramento,CA,United States,38.53864,-121.48996,,3504465,"379 of 1,732",31bb27f467f457a49cc952fa30117e16
Apollo Burgers,Burgers,Carson,CA,United States,33.83572,-118.23807,Website,3658187,22 of 151,4b4124217a2c8bbd2eba4b0bca8ab06f
Burger Lounge,Burgers,Del Mar,CA,United States,32.980633,-117.25016,858 720 1200,4164791,14 of 79,b1b350752dcc0b04872f25859db78415
burgers and brew,Burgers,Sacramento,CA,United States,38.56988,-121.49129,916-442-0900,1952432,"48 of 1,732",cc183befc16918dc96cc2a7e9229559e
Buster's Burgers and Brew,Burgers,Willits,CA,United States,39.4109,-123.35446,707-459-3233,2442541,5 of 35,8c413bd427e0e867f88efbc987017de4
Cowboy Burgers & B.B.Q.,Burgers,Baldwin Park,CA,United States,34.080036,-117.98779,(626) 962-7372,3237351,,bdbbb82752949f61fa2a4ce308edab8a
Five Guys,Burgers,San Bernardino,CA,United States,34.06602,-117.27347,,3266397,63 of 275,97d4049fe9c66136a4c1a8ac48a560ed
Fuddruckers,Burgers,Citrus Heights,CA,United States,38.66639,-121.27225,916-966-1887,865295,52 of 140,23e9670db69415ad5dc7cbfa91041fcb
Galaxy Hamburgers,Burgers,Cerritos,CA,United States,33.88782,-118.04607,Website,3168562,47 of 138,8bea3c5a64228d4888459b6d776a67bb
Happy Hound,Burgers,Los Gatos,CA,United States,37.23756,-121.96225,408-358-2444,818242,72 of 129,97330e45cd83ca73c596d0dfb0cbd7b1
Johnny Rockets,Burgers,San Jose,CA,United States,37.292725,-121.988754,(408) 379-1144,361052,"645 of 1,898",2e11b5428427eb23d70cbb38b6e0d8b8
John's Burgers,Burgers,Bakersfield,CA,United States,35.36683,-119.03879,661.324.8131,5549444,284 of 700,c8f2541e25c2acf83e21f90d0c5458c5
Konjoe Burger Bar,Burgers,San Jose,CA,United States,37.33578,-121.8947,+1 408-418-3160,4818691,"529 of 1,898",3a77f13fcb65df9efec21d46206e4a32
Main Street Burgers,Burgers,Los Gatos,CA,United States,37.22216,-121.98413,408-354-1881,633450,32 of 129,70b7d53d99d1e2341afce9490402b4c0
Nation's Giant Hamburgers,Burgers,Benicia,CA,United States,38.05372,-122.15313,Website,3292645,34 of 63,4518ffc03ec1dd3e94c2ee981eb7414c
Nobby's Burgers,Burgers,Chico,CA,United States,39.72213,-121.8284,530-342-2285,2620281,9 of 275,83225b03736cd274779bc9b027d47093
North Shore Burgers,Burgers,La Canada Flintridge,CA,United States,34.205376,-118.2185,818.790.1672,3683197,27 of 54,6e17a03b3e26e17d956253f02a5f88d8
Red Robin America's Gourmet Burgers and Spirits,Burgers,San Bruno,CA,United States,37.638237,-122.42207,650-588-4600,468819,17 of 120,fc199aa6a2dd12297701e265e3355077
Red Robin Gourmet Burgers,Burgers,La Quinta,CA,United States,33.70745,-116.26998,Website,2432452,69 of 99,a1669c6b7b5349348634c7ebb4db8e23
Riley's Bar and Grill,Burgers,Chico,CA,United States,39.72439,-121.8438,,3859452,110 of 275,bef56f185b1f80aae5c4678758aa4a21
Smashburger,Burgers,Citrus Heights,CA,United States,38.6674,-121.27199,Website,2403717,35 of 140,ca6a838800e9c2fc012071eb5761a4d2
Smashburger,Burgers,San Jose,CA,United States,37.34064,-121.90691,,4752943,"511 of 1,898",fe8462b303ef4f48c88142ee2901fd30
The Coconut Grove,Burgers,Sacramento,CA,United States,38.58339,-121.50507,,3321799,"804 of 1,732",744a6a779a01904257280ae0717bd28f
The Counter,Burgers,San Mateo,CA,United States,37.892838,-122.27348,,4043517,26 of 355,f7698e31e68e79d44079b337e8472f36
Willie's Burgers & Chiliburger,Burgers,Sacramento,CA,United States,38.56226,-121.49211,(916) 444-2006,818810,"381 of 1,732",c61626bde04eef207f3e8f31b422e5ec
33rd Street Bistro,Caf_,Sacramento,CA,United States,38.567486,-121.46398,916-455-2233,339737,"238 of 1,732",cc99ad00257b395c3e20cafe6e9fcff0
A Cow Jumped Over the Moon,Caf_,Beverly Hills,CA,United States,34.06965,-118.40341,3102744269,1370255,,8aa7ea99fe21849fb41d9285ff8334d2
Bin 73,Caf_,Marina del Rey,CA,United States,33.97936,-118.46629,Website,3657500,47 of 116,cb3001fa8ae6d2749f6abffdc6e47eb4
Bistro 13,Caf_,Camarillo,CA,United States,34.2158,-119.00454,805-383-3388,514318,10 of 170,31fd141e5e125315b1a18b6716fe7e41
La Brasserie Bistro & Bar,Caf_,La Quinta,CA,United States,33.71515,-116.29521,760-771-4400,2059922,13 of 99,349f13d4f10738854c3b804d885f4149
Alonzo's Coffee Shop,Caf_,Sacramento,CA,United States,38.524647,-121.44244,916-453-9225,640519,"456 of 1,732",437db8e7911e0eb23c916dbfeb50b252
Ambrosia Cafe,Caf_,Sacramento,CA,United States,38.57884,-121.492645,916-444-8129,559024,"80 of 1,732",50b6286f5908c07fff28a996f4f19ef0
Asha Tea House,Caf_,Berkeley,CA,United States,37.87205,-122.2688,,3928634,309 of 592,c8799e0dccdcf7034591bdf4d15628ac
Barista Society,Caf_,Los Angeles,CA,United States,34.05074,-118.25476,213.444.3389,4563363,"2,779 of 8,530",9f7a8e87c24d120d192f46499fba4eb6
Barney Greengrass,Caf_,Beverly Hills,CA,United States,34.06707,-118.40289,310-777-5877,348176,76 of 269,e57aeb81064a91279c9d4489961e21d9
Benton Station Cafe,Caf_,Benton,CA,United States,37.81866,-118.47704,,3601753,1 of 1,3fcc4a1336fac48321533704d8932d76
Bill's Cafe,Caf_,San Jose,CA,United States,37.308342,-121.9016,(408) 294-1125,491279,"5 of 1,898",7d3a59bdf408a2e039f3e7dfbf25bb85
Buffalo Chips,Caf_,Amador City,CA,United States,38.41935,-120.82633,(209) 267-0570,4584769,3 of 3,bbbcabcfc7fcb686032118c662c7bc24
"Bustolini's Deli and Coffee House- CLOSED",Caf_,Chico,CA,United States,39.72551,-121.83651,530-892-1790,1065601,,0c0eeb6f83e6c055d7a34e6602e0e084
Cafe 1850,Caf_,San Jose,CA,United States,37.3342,-121.88943,(408) 287-4111,342896,"779 of 1,898",3d708d8f2ace3e06751660d21baf489e
Cafe di Casa,Caf_,South San Francisco,CA,United States,37.66391,-122.39991,6507631025,4777048,47 of 138,f2f5588afe9ac2500065f4a5f7c1799b
Cafe El Dorado,Caf_,El Dorado,CA,United States,38.680717,-120.86867,,3734236,2 of 9,47f6ad928bba3dd0cc2531ded79c9cc0
Cafe Macade,Caf_,San Jose,CA,United States,,,,2059229,"661 of 1,898",4f32ebdb18abb79d6bdde5db9c9eb5bb
Cafe Stritch,Caf_,San Jose,CA,United States,37.33039,-121.88626,(408) 280-6161,342852,"125 of 1,898",c744e7a50d3ae55418055b2b7578d8ef
Cafe Yesterday,Caf_,Berkeley,CA,United States,37.86916,-122.29116,Website,2557793,91 of 592,9ec183af19b1c71b1e5f8cd419608f8e
Cafecito Organico,Caf_,Malibu,CA,United States,34.021065,-118.80916,323-666-1950,4116900,21 of 78,166dcc973973dc063b0b54c68bcb8d1b
Cityside Cafe,Caf_,Sacramento,CA,United States,38.6008,-121.43109,(916) 929-8855,891485,"739 of 1,732",8168e4f45dc6dc9d78ab1f8b7b73bac1
Coogies Beach Cafe,Caf_,Malibu,CA,United States,34.034206,-118.6931,310-317-1444,735539,18 of 78,4585cb14f62bf3d33030297e0f34901d
"Crepe Escape- CLOSED",Caf_,Sacramento,CA,United States,38.544315,-121.49054,,1062149,,52d387cf04e46b572d4509d8950c7ca0
Dennys restaurant San Jose,Caf_,San Jose,CA,United States,37.250614,-121.87101,1(408)448-6205,4273263,"723 of 1,898",08f24b9c6f3300a201d683a892b26a3e
element coffee lounge,Caf_,Camarillo,CA,United States,34.21644,-119.03825,Website,2212464,27 of 170,b7da752283cff7e5cf22d1b65052d84b
Fluid Expresso Bar,Caf_,Sacramento,CA,United States,38.57481,-121.4914,,3405250,"572 of 1,732",1acbb2bf934214aab7920e9962b2093e
H.O.M.E. House of Music & Entertainment,Caf_,Beverly Hills,CA,United States,34.07032,-118.40577,,3973944,117 of 269,c99bd6c01e2c3792e0d6f039b80749c9
Hay Market Willow Glen,Caf_,San Jose,CA,United States,37.30699,-121.90002,408 295 4800,2295035,"202 of 1,898",66de33f8f9d9b7e95158152f9f31fee9
Hillbillies Restaurant,Caf_,Murphys,CA,United States,38.13693,-120.45701,(209) 728-9300,2548050,19 of 32,c2ee653a8d92cc367d3626398893c738
"It's A Grind Coffee House- CLOSED",Caf_,San Jose,CA,United States,37.366043,-121.91514,(408) 451-9724,869329,,83c2cc39cd66cb077f5105f5370cb3fc
Jazz Caffe,Caf_,Berkeley,CA,United States,37.87111,-122.26852,510-883-0231,614161,326 of 592,1252b813c1105b1d62c8840dc9d5ff32
Kaldi Coffee & Tea,Caf_,South Pasadena,CA,United States,34.114563,-118.156425,626-403-5951,932209,34 of 70,4838246940ddbee6271d7719186d8dd3
Lumberjack Cafe,Caf_,Big Bear City,CA,United States,34.26047,-116.86237,909-585-2129,2442562,1 of 13,ebc51feddf696ee71feab9721bc3dcba
Luncheon Antipasti Deli,Caf_,San Jose,CA,United States,,,,2070096,,93904851a6f6f67525bb7a38f16da331
Marcelli's Sandwiches & More,Caf_,Chico,CA,United States,39.73019,-121.84244,530-892-1329,5547656,,e04b09cd2bf5d11d04b18ba6794c6483
Never Too Latte,Caf_,San Bruno,CA,United States,37.6241,-122.41124,Website,3479085,28 of 120,88e45b932afa9d31a3028fd92402478e
Nifty 50 Cafe,Caf_,Seaside,CA,United States,36.61357,-121.84324,831-394-5050,1093130,43 of 77,9e595f6d16944e9b5de9d6e2200cee46
Nite Moon Cafe,Caf_,Los Angeles,CA,United States,34.09599,-118.33863,+(1)3239884052,4755340,"1,310 of 8,530",7ec62a70ac2deda0e4ce1557e7998d42
Old Soul Cafe,Caf_,Sacramento,CA,United States,38.57536,-121.48411,(916) 443-6340,897053,"113 of 1,732",7a72f7897f3b5d53b06e8888cbc3c9bd
Old Susana Cafe,Caf_,Simi Valley,CA,United States,34.265724,-118.66167,805-582-2600,805247,121 of 228,6173f7e4e12ffb52858ef8ce21aabd67
Pangaea Cafe,Caf_,Sacramento,CA,United States,38.55361,-121.47564,916-454-4942,2213034,"88 of 1,732",e1c6935e008aa9a20359cd02e4aed5e4
Panini Coffee and Cafe,Caf_,Marina del Rey,CA,United States,33.98652,-118.43963,310-823-4446,2669555,57 of 116,95da60649a8044794df11eb05f364928
Papachay,Caf_,San Carlos,CA,United States,,,650.593.1999,4701936,,2abcf28975148663336e720ada1ba529
Papachino's Grill & Greens,Caf_,Chino,CA,United States,33.98989,-117.70645,909-393-9904,2389707,1 of 149,c57e8979f4798ec29dffe438f251f844
Patty's Cafe,Caf_,La Mesa,CA,United States,32.790344,-117.02098,(619) 462 1922,3655787,61 of 187,855ee25fa1d7776c0ee55fac8f32682a
Peet's Coffee & Tea,Caf_,Sacramento,CA,United States,38.574207,-121.40234,916-485-7887,833042,"223 of 1,732",958cf5c0dd78390c745b450e8bea1031
Perko's Cafe,Caf_,Chowchilla,CA,United States,37.12707,-120.24863,(559) 665-2090,3647208,8 of 19,5cda0555c65a0fdc19b1140cc4af81a5
"PSRT Cafe- CLOSED",Caf_,San Jose,CA,United States,37.33336,-121.89044,(800) 798-8388,888309,,a1159d6606d89a7a6ccaf0642469a6f4
Ramona Cafe,Caf_,Ramona,CA,United States,33.0452,-116.86282,760-789-8656,524178,4 of 50,3bf83fb373bb6c52899c09cbab49e3db
Rivers Edge Cafe & Espresso,Caf_,Sacramento,CA,United States,38.559578,-121.397,,3834253,"149 of 1,732",b9f39282dcd4b2072e3fe2fc8ef29459
Rollo's Donut,Caf_,San Jose,CA,United States,37.352997,-121.88629,(408) 294-7757,816089,"695 of 1,898",ceccd793e813ed17281afee40e445820
Specialty's Cafe & Bakery,Caf_,San Jose,CA,United States,37.38481,-121.92667,(415) 362-2052,4071530,,dca37e313e6231a437bec6ffbad82cb8
Starbucks,Caf_,Corona,CA,United States,33.8539,-117.56287,951-280-0953,3196591,107 of 299,93bce088d4f4ec98a35e20edf5c7c00f
Starbucks,Caf_,Marina del Rey,CA,United States,33.986034,-118.443596,(310) 578-6832,1167228,34 of 116,c006950602399a64833c5db47118d796
Starbucks,Caf_,Marina del Rey,CA,United States,33.99199,-118.44476,,1167225,84 of 116,1f89bc5bb3961ca0d74ce1a7da0c6111
Starbucks,Caf_,La Mesa,CA,United States,32.771145,-117.01577,619-697-7189,1144610,,2a08de839f50cb8dd6172c75b60b73d9
Starbucks,Caf_,Marina del Rey,CA,United States,33.97994,-118.440056,(310) 574-3941,1140079,75 of 116,10c75475935643b8b95c490ecf3fce9b
Straits Cafe - Santana Row,Caf_,San Jose,CA,United States,37.32165,-121.94785,(408) 246-6320,347392,"138 of 1,898",1f5df10835eee6a35b1abd0702f8784d
Strawhouse Cafe,Caf_,Junction City,CA,United States,40.73879,-123.206726,530-623-1990,2249163,1 of 2,8fe48b40d18a2e4886c9172854adaf05
Studebakers Coffee house,Caf_,Kelseyville,CA,United States,38.97793,-122.83855,(707) 279-8871,2357914,4 of 19,04eec464b6b914df9a2f27123dff752e
Tapioca Express,Caf_,San Jose,CA,United States,37.319553,-121.97509,,4134237,,64ac31d749cb57e92b77ef1a707e93ab
Temple Coffee,Caf_,Sacramento,CA,United States,38.56365,-121.4726,Website,3452234,"120 of 1,732",3e17e95eaca1ee11bb01450da638dcd9
The Coffee Bean & Tea Leaf,Caf_,Manhattan Beach,CA,United States,33.897644,-118.39483,,1154726,,c4b11915e8c924c431a4a4b5974fac97
The Coffee Bean & Tea Leaf,Caf_,Beverly Hills,CA,United States,34.06387,-118.39912,Website,1154606,99 of 269,1833c089f2d089c6910956d147f9aefa
"The Coffee Bean & Tea Leaf- CLOSED",Caf_,Simi Valley,CA,United States,34.28742,-118.71596,805-582-0566,1154243,,f349f29a1071d928a275210636b0a6c6
California Crisp,Californian,Roseville,CA,United States,38.77247,-121.26587,916-771-2001,506609,195 of 368,826294ee6be5ba2f50cd4b1dfd2a8f19
Freshly Baked Eatery,Californian,San Jose,CA,United States,37.33934,-121.89007,(408) 298-9370,347466,"176 of 1,898",533551c342feeb6b75f064802317c0e5
Gta,Californian,Los Angeles,CA,United States,33.99027,-118.46447,,4539261,"1,901 of 8,530",67a0cbd0706641a3d7a976ec5d82c17b
Hennessey's Manhattan Beach,Californian,Manhattan Beach,CA,United States,33.8557,-118.39896,3105464813,4089961,89 of 177,830d50ee2d6e3b12e73eb485a0a8f364
Hook & Ladder,Californian,Sacramento,CA,United States,38.56794,-121.48845,Website,3732899,"276 of 1,732",b18e1066dbe1d55da3f96dadb8e7bf92
Jer-ne Restaurant & Bar,Californian,Marina del Rey,CA,United States,33.98397,-118.45045,310-574-4333,350156,46 of 116,1f4c1760f60e2c46612935d5121fcfae
Revival Bar+Kitchen,Californian,Berkeley,CA,United States,37.871044,-122.2682,510-549-9950,1988159,60 of 592,0c6a443a0cddbe5ab0f5400cae8d6eed
Stones Restaurant,Californian,Marina del Rey,CA,United States,33.981884,-118.45978,310-301-3000,495147,60 of 116,ab42b7d517f58334612ca83d2ac71b97
The Bossy Wife & Co,Californian,Los Angeles,CA,United States,34.08715,-118.38072,310.358.9011,5985338,"769 of 8,530",b75bb84250325c7ec9a683565edb45af
Vintage Wine Bar,Californian,San Jose,CA,United States,37.31988,-121.94776,408-985-9463,3209072,"199 of 1,898",b719aba3b96191fede5f2bffe28b0d6b
"A Chinese Restaurant-ming Gdn- CLOSED",Chinese,San Anselmo,CA,United States,37.97605,-122.56172,(415) 453-2468,906866,,9b590fad699d98215325b5732f90c654
Boiling Point,Chinese,San Gabriel,CA,United States,34.07956,-118.10339,16263009800,4242747,32 of 201,edfe71a9348977a40cc8dac3619d1d1e
Cafe Tibet,Chinese,Berkeley,CA,United States,37.87177,-122.270096,510-548-5553,912848,127 of 592,932e23d4e8d0996dc65c0aa651e037e3
Cathay House,Chinese,Salinas,CA,United States,36.67521,-121.65397,831-422-6133,825753,71 of 281,6de92d759a341c423999f9f982f4c41e
Cf Cheng Chinese Cuisine,Chinese,Sacramento,CA,United States,38.64697,-121.51028,(916) 928-7222,4475973,"425 of 1,732",7c172a3f359697c88a8692482fc8c6c6
Chaochi Chinese Restaurant,Chinese,San Jose,CA,United States,37.39724,-121.87285,(408) 258-4428,901946,,90aca70b9b4cb830e3afaead79831a49
Chef China,Chinese,Spring Valley,CA,United States,32.74798,-116.98668,619-460-7286,901926,,583595d5f8a304c1b038007fe69a13ac
China House,Chinese,Lucerne,CA,United States,34.336735,-116.83433,,4065719,5 of 9,0108d59d0c7ed6c75ddb91acd3ecafb4
China Pavilion Restaurant,Chinese,Manteca,CA,United States,37.79747,-121.19426,(209) 239-8820,846995,56 of 142,bf18bcccee2c6ef4cd73e7cea7437918
China Run,Chinese,Roseville,CA,United States,38.7693,-121.33006,916 786-7786,2440372,206 of 368,ef50b7699910244c83e3c7eeee8f46a6
China Way,Chinese,Rosemead,CA,United States,34.075294,-118.07302,(626) 280-4738,3163878,,de1cddcc7c377e914b9930d790998f43
Chung King Chinese Buffet,Chinese,Sacramento,CA,United States,38.598347,-121.3831,916-488-7474,467816,"247 of 1,732",9635ad3dc5e5cc14a86d55dac18a3d8b
Eagle chinese restaurant,Chinese,Salinas,CA,United States,36.673668,-121.65562,,1728632,9 of 281,c943953306df1c557c4824ea3023547b
Egg Roll House,Chinese,Los Gatos,CA,United States,37.24234,-121.95996,(408) 356-2987,915789,85 of 129,b379f0009fb7d5d40aff3578195e19a3
Fatima Restaurant,Chinese,San Jose,CA,United States,37.3053,-122.03218,(408) 257-3893,446674,"487 of 1,898",bdbf8fa4e3b9c365598a625e35cf3cc1
Flying Chopstix,Chinese,Carson,CA,United States,33.831116,-118.27535,310-549-2634,1057211,,58954b2b471724e34e13f5a84a9ae89b
Fortune House,Chinese,Sacramento,CA,United States,38.56295,-121.49736,(916) 443-3128,938827,"507 of 1,732",00ef9ccd72382be880eab90259805be2
Frank Fat's,Chinese,Sacramento,CA,United States,38.57874,-121.49672,9164417966,339794,"39 of 1,732",ebf3c3891b61d149e9fc94b4b78e3515
Gam Lei SIG Chinese Restaurant,Chinese,Sacramento,CA,United States,38.57058,-121.49839,916-446-6888,884878,"731 of 1,732",2da0efd6e5b9df2bc4d4a3fd95170bac
Golden Bowl Chinese Restaurant,Chinese,Salida,CA,United States,37.7102,-121.07756,,3245525,1 of 15,89755672ef094b4800b15df1b787217b
Golden Rice Bowl,Chinese,Sacramento,CA,United States,38.57936,-121.49452,916-444-6701,1990969,"738 of 1,732",c9e38d43849e1a4a3d159fab69275aa7
Grand Fortune Seafood Restaurant,Chinese,San Jose,CA,United States,37.27876,-121.83586,408-226-8888,3908977,"633 of 1,898",b4fe5eeb25cbe4f577d4aaa305a41661
Guilin Rice Noodle,Chinese,San Gabriel,CA,United States,34.07964,-118.10154,,1777215,,5335818305f31fdef03a78529f3319c8
Hand Pull Noodles House,Chinese,San Jose,CA,United States,37.27462,-121.85187,(408) 448-2188,862867,"426 of 1,898",4819c057a02d666efccb7770374c2c14
Happy Buffet,Chinese,Salinas,CA,United States,36.69466,-121.66837,831-771-9898,1396164,121 of 281,5275d3fcd4e04bcfe4e87efa66516562
Happy Gourmet,Chinese,Carmichael,CA,United States,38.660587,-121.32667,(916) 332-9725,843414,,217832b4600f55c770b5a0e9d5c320a1
Happy Panda Chinese Restaurant,Chinese,Sacramento,CA,United States,38.62407,-121.40145,,2648836,,03e5d05944f29a4a0d766137416b6dff
Ho Sun's Kitchen,Chinese,Manteca,CA,United States,37.813152,-121.21708,209-239-8522,821845,50 of 142,828b35cf942bddb562bab4572cff2555
Hong Kong Garden Restaurant,Chinese,Hemet,CA,United States,33.755394,-116.95867,(951) 929-8669,473157,83 of 170,8f1f36390783b9ecf2fbf85435da41a4
Hong Kong House,Chinese,Sacramento,CA,United States,38.5544,-121.37263,,3344530,"525 of 1,732",65dacf4a4665ab2ada277c791b8ea63b
Ho-Wah Restaurant,Chinese,Marina,CA,United States,36.685207,-121.8014,(831) 384-7951,830004,12 of 49,52f84b58146a2e5088191733b47dcc56
"Hui Lau Shan Healthy Dessert- CLOSED",Chinese,San Gabriel,CA,United States,34.07956,-118.10339,6262828263,1597727,,7a3d37384b6fe67cfb449641877e0d81
Hunan Chilli King,Chinese,San Gabriel,CA,United States,34.08003,-118.09325,(626) 288-7993,2389610,64 of 201,000023c4ca7afdc7510cf72d15f7452f
"Hunan Garden- CLOSED",Chinese,Camarillo,CA,United States,34.22824,-118.99854,805-384-0689,514230,,93377bb248299ac3a3869c1e4b1300be
Hunan Seafood,Chinese,Rosemead,CA,United States,34.08066,-118.07814,(626) 280-8389,1009929,,a142d5413624ad36089031072f9c6638
Jim Hom's Cantonese Restaurant,Chinese,Spring Valley,CA,United States,32.70789,-116.99911,619-460-3348,900905,8 of 65,1de18e96d5b03b94f35a64855e10a7cb
Lamber Chinese Bakery,Chinese,Chula Vista,CA,United States,32.60203,-117.06454,(619) 426-7458,936760,,d7f70a46e86edc3b64eb76357f359c18
Lei's Kitchen,Chinese,Sacramento,CA,United States,38.581314,-121.49726,,3598505,"470 of 1,732",df519ada5aea3250e8848e5965e874e0
Leo's Kitchen Chinese Bistro Restaurant,Chinese,Roseville,CA,United States,38.77118,-121.31287,19167881998,3932638,74 of 368,f158096c390b081890e293f696f60fbf
Light & Fresh Restaurant,Chinese,Simi Valley,CA,United States,34.27165,-118.78394,(805) 522-1416,468498,112 of 228,8715c5ec432b8bbd1e79858dcfc8057b
Lucky china,Chinese,Carson,CA,United States,33.83158,-118.27294,,4339975,5 of 151,f769643fa78764cf1c26f79b81b74e6d
Luu's Chicken Bowl,Chinese,Manteca,CA,United States,37.80127,-121.21664,209-825-7144,847870,22 of 142,9ba2ece0a341953422d8a5a822104602
Madarin Chinese Restaurant,Chinese,Chula Vista,CA,United States,32.640465,-116.99173,(619) 656-8080,833066,78 of 393,6d07b00e205c2ea23b64c00e810815c6
Mandarin Chef,Chinese,El Cajon,CA,United States,32.74325,-116.93376,(619) 670-1687,906608,111 of 287,004b30a99aa599507881d474b28e02e9
Mayflower Chinese Cuisine,Chinese,Capitola,CA,United States,36.97819,-121.96878,(831) 476-4688,832517,51 of 90,1c03667baae196d051b3e9e818673998
Mei Long Village,Chinese,San Gabriel,CA,United States,34.07952,-118.10411,(626) 284-4769,468243,17 of 201,166609d775b9f48da4e8447d060ac8f4
New Capital Seafood Restaurant,Chinese,San Gabriel,CA,United States,34.07964,-118.10154,626-288-1899,1172009,24 of 201,d00eecd1b54abf62045be7c880e98a3c
"New Happy Family Restaurant,",Chinese,Rosemead,CA,United States,34.08057,-118.081,(626) 288-5786,2605567,27 of 114,eeda73e35920e459ca75a8b6ea6471cd
New Hong Kong Wok,Chinese,Sacramento,CA,United States,38.528103,-121.49603,(916) 454-2828,1151977,"770 of 1,732",8b7b0c3f779a0e18c7c5981aed564ef3
New Lim's Garden Seafood Restaurant,Chinese,Concord,CA,United States,37.96393,-121.99046,925-687-2828,2659674,92 of 256,3daab1469ce1ceb5f00396f89191ec56
New Shanghai,Chinese,San Jose,CA,United States,37.41559,-121.87618,14089451380,4021849,"626 of 1,898",7baa0179d2589251343bfbadd810f6ec
P. F. Chang's,Chinese,Chula Vista,CA,United States,32.62111,-116.96697,(619) 421-2080,2693290,111 of 393,b368adefebbbf1a3cc51ecee01926315
P.F. Chang's,Chinese,Sacramento,CA,United States,38.5782,-121.48549,916-288-0970,339846,"210 of 1,732",8f119c4239d03d66c1a8c79b78aee2f8
P.F. Chang's,Chinese,Roseville,CA,United States,38.77241,-121.26563,916-788-2800,366455,49 of 368,05e16ee1eae37ece007b4634513cec7a
Panda Express,Chinese,Chico,CA,United States,39.759193,-121.84348,Website,4199101,,39487cad176e3af0f58d580b914682c9
Panda Imperial Restaurant,Chinese,Chula Vista,CA,United States,32.60989,-117.0676,619-422-3388,900392,51 of 393,62a3fd602135d5994475e8d2e0536e58
Peeking,Chinese,Chico,CA,United States,39.72919,-121.84203,,794859,150 of 275,41d52fb50c93c964fc5e50324ef73672
Peking Wok,Chinese,Cerritos,CA,United States,33.86571,-118.0946,,799142,15 of 138,3c95846f110be034fb043fa7946909ff
Red Lotus Kitchen & Bar,Chinese,Sacramento,CA,United States,38.574,-121.46982,916-231-0961,2310565,"532 of 1,732",b25264d8dea8f1cca3ee77270ed0f725
Rose Garden Chinese Restaurant,Chinese,Roseville,CA,United States,38.72739,-121.27206,916-781-3823,469102,16 of 368,0229bb148703c253c8a0308b20bf9569
Royal Panda,Chinese,San Dimas,CA,United States,34.10673,-117.82423,909 592 7303,539346,,800abb242f6924611a8b05d63f53b96d
Shaanxi Gourmet,Chinese,Rosemead,CA,United States,34.08034,-118.08303,,4057717,19 of 114,50db8b8758680dec4eb2db47d86cccb5
Shanghai Grill Restaurant,Chinese,Beverly Hills,CA,United States,34.067146,-118.39684,310-275-4845,736510,109 of 269,2e556b9e3a32427bb41caf1a355e8a8a
Shen Hua,Chinese,Berkeley,CA,United States,37.857975,-122.253296,510-883-1777,496499,122 of 592,289dd7c7c0e005c8f73db3bb749556db
Silver Dragon Restaurant,Chinese,Citrus Heights,CA,United States,38.6646,-121.27401,916-965-7457,830527,50 of 140,d5a9b7bccddace5747feed1ca4550f23
Sun-Ly Chinese Restaurant,Chinese,San Jose,CA,United States,37.314594,-121.83753,408-295-8566,468176,,b44a3962a0bacda85805f5434c34f4c3
sunny shanghai,Chinese,San Bruno,CA,United States,37.617203,-122.40839,,2200582,66 of 120,721820c7aa37a34b5b5fe9777dd4a0b4
Sweetheart Cafe,Chinese,Berkeley,CA,United States,37.868034,-122.25794,(510) 540-0707,378802,335 of 592,467b852fcf10c731225ee45081324395
"Szechwan Restaurant- CLOSED",Chinese,San Bruno,CA,United States,37.62806,-122.41132,(650) 583-7171,936634,,1561116b8a2ee478b51597ed4ba88355
"Tastebuds- CLOSED",Chinese,San Bruno,CA,United States,37.62913,-122.41579,(650) 583-0899,925516,,904c356a606d628e7ee8c1549cebd851
Tasty China Express,Chinese,Spring Valley,CA,United States,32.69718,-117.0198,(619) 470-7569,933708,12 of 65,5056e284409e35e20dcca47ec235bdd8
The Mandarin Restaurant,Chinese,Sacramento,CA,United States,38.595547,-121.36279,916-488-4794,528238,,37cf620aff50eab73c2e70a9e8fe3e4f
Turandot North China Gourmet Cuisine,Chinese,Chico,CA,United States,39.74544,-121.85144,Website,3428483,38 of 275,34968c6bd233b38a0346d4131b37fc37
Wayne's Wok,Chinese,Sacramento,CA,United States,38.496967,-121.48275,916-428-1234,469122,"806 of 1,732",38bdd60a281e216edd9050f069242ba7
Wonderful Chinese Restaurant,Chinese,Citrus Heights,CA,United States,38.694202,-121.289536,916-725-8888,469092,30 of 140,f9b1b8cf9efb39f8abad77da50b65025
Annie's Cornucopia,Delicatessen,Solana Beach,CA,United States,32.99046,-117.26105,(858) 481-2221,910727,,8033a766b9cc3941a4f8e3606f9807c2
Beli Deli,Delicatessen,Belmont,CA,United States,37.517292,-122.27509,(650) 593-7311,930305,18 of 67,ff8843f94e51869abaac74fbb4342040
Bmh Italian Deli,Delicatessen,La Mesa,CA,United States,32.76854,-117.03252,619-698-6333,898709,32 of 187,6f23532cbf0bc2b1609bc3d028f8d64e
"Carnitas Jimenez- CLOSED",Delicatessen,Madera,CA,United States,36.97957,-120.07424,(559) 674-9788,834472,,1df4341f2fef3b6f735b3ab6a2b00938
Chiaramonte's Deli & Sausages,Delicatessen,San Jose,CA,United States,37.35325,-121.88648,408-295-0943,874596,"593 of 1,898",f061977346cbaf667bc991d9b700839b
DE La Cruz Deli,Delicatessen,San Jose,CA,United States,37.386547,-121.9065,408-435-1185,876819,"809 of 1,898",0796f01123ece8ff91ccd38b34db08a4
Della-Rose Deli,Delicatessen,Salinas,CA,United States,36.65328,-121.62642,831-759-8234,823117,67 of 281,5b4529efb020dc873e04529061c4cec0
Gloria's Tacqueria,Delicatessen,San Jose,CA,United States,37.3189,-121.97359,(408) 243-0220,862864,"499 of 1,898",d22f9caf53ee568777ece1e3e2ac280a
Halal Meats,Delicatessen,San Jose,CA,United States,37.296642,-122.03213,(408) 865-1222,868519,"497 of 1,898",41cd6b355c31991e511124887f569972
Hummingbird Cafe,Delicatessen,Berkeley,CA,United States,37.875767,-122.26047,510-848-8361,379243,306 of 592,614265ee87c906c4e55fe89cfca193f7
Juno's Kitchen and Delicatessen,Delicatessen,Sacramento,CA,United States,38.570644,-121.45725,(916) 456-4522,2553824,"128 of 1,732",a7b7f4354c50d47304004667890ae687
La Paloma,Delicatessen,San Bruno,CA,United States,37.62823,-122.41132,(650) 583-0939,925515,,535e9b5441f5c9a45b2e71911aba3b80
Little Lucca Sandwich Shop,Delicatessen,South San Francisco,CA,United States,37.65077,-122.43082,(650) 589-8916,780014,3 of 138,bf481c73898db464136bb51326698d16
Mayhew Deli,Delicatessen,Sacramento,CA,United States,38.563507,-121.35184,(916) 368-6673,902430,,37f8c078edb5bfe5ba883ce9c9956e77
Mediterranean Delite,Delicatessen,San Carlos,CA,United States,37.49521,-122.24652,(650) 654-9172,864049,16 of 112,c148557df8d0c8378bf1842ea17dfb6e
National City Deli & Catering,Delicatessen,Chula Vista,CA,United States,32.63237,-117.06799,(619) 474-3244,891493,,c26ac88ac4ede4a647cdb0760ddf7e0a
"Olive Grove Pizza Cafe- CLOSED",Delicatessen,Berkeley,CA,United States,37.85143,-122.29056,510-549-9289,378865,,625daf36449ccf7b8d0f9cc78bbcfda1
Panino Solvang,Delicatessen,Solvang,CA,United States,34.5953,-120.13964,Website,2429429,14 of 55,bbd1b251e33dc4967b399dc7516f66c2
Port of Subs,Delicatessen,Reedley,CA,United States,36.602917,-119.46076,559-643-0382,864086,,d6c67fdec96955401338cfdced19f03d
Stella Nonna,Delicatessen,Berkeley,CA,United States,37.86469,-122.262764,510.845.8787,538549,222 of 592,b569d3ddb3f5aa036ef1ff295b308e49
Stella's On Third,Delicatessen,Chula Vista,CA,United States,32.63875,-117.0789,(619) 427-6476,862835,134 of 393,85fafe53ca6f10aaf11b2a65ca8a366a
Subway,Delicatessen,Chula Vista,CA,United States,32.604305,-117.04063,619-409-9007,901432,29 of 393,2d708a2a9389b908dabd65107c647a60
The Nosh of Beverly Hills,Delicatessen,Beverly Hills,CA,United States,34.068768,-118.40719,310-271-3730,491158,75 of 269,1350c54bb1b9fd3ff700d30642eefc80
The Original Rinaldis,Delicatessen,Manhattan Beach,CA,United States,33.88133,-118.39591,Website,3736522,,3a11f9ea44557efe626c5fbb54dc3bf1
Time Deli & Catering,Delicatessen,San Jose,CA,United States,37.322388,-121.93198,408-297-7400,848891,,c094a52b96e77168eec38b26a75729b7
Togo's,Delicatessen,San Jose,CA,United States,37.33184,-121.91238,(408) 289-8624,847238,"338 of 1,898",fd177026eaecf8e98aba5477ce378c0c
Wild Thyme Deli & Cafe,Delicatessen,Marina,CA,United States,36.679882,-121.78272,831-884-2414,822304,5 of 49,c7cc4a817d8aa5abb70d2cf780bedbbd
Zarri's Delicatessen,Delicatessen,Albany,CA,United States,37.89054,-122.29411,510-525-5405,367267,39 of 74,bf4664bcb3aa5c4b47c6c8f3d7ed3e65
Ben & Jerry's,Dessert,Los Angeles,CA,United States,34.24069,-118.5536,+(1)818-349-7714,4410107,,3ea5feccd3190ee7e612b84616fe5947
Ben & Jerry's,Dessert,San Jose,CA,United States,37.31984,-121.94798,408.423.8115,1177005,"515 of 1,898",55760d3c7c39147bb1951eb4d09d3371
"Dairy Queen- CLOSED",Dessert,Roseville,CA,United States,38.77247,-121.26587,(916) 784-9715,922265,,717fe8235bb35d7afe362b698ff271bf
Dilbag Singh Ice Cream,Dessert,Sacramento,CA,United States,38.67588,-121.50576,(916) 419-1162,901913,,d03cabfc54ce75fb6e1c5db8d544e209
Dolce Spazio Dessert Cafe,Dessert,Los Gatos,CA,United States,37.22659,-121.98204,(408) 395-1335,822080,38 of 129,289a0437d0c34d799ac8f7f241058e40
Gelateria Naia,Dessert,Berkeley,CA,United States,37.870953,-122.26827,(510) 883-1568,876430,316 of 592,a1bc2a8b50c36af5173aa5e9fafc2531
Le Bateau Ivre,Dessert,Berkeley,CA,United States,37.86244,-122.25873,(510) 849-1100,379238,245 of 592,6596afade3067d205054b08f6c66f50b
Leatherby's Family Creamery,Dessert,Citrus Heights,CA,United States,38.70765,-121.27083,916-729-4021,854706,3 of 140,d0c7db5f5f3c2b8fa218a8f440730cdc
Lolita's Ice Cream,Dessert,Soledad,CA,United States,36.42664,-121.3288,831-678-3828,840281,9 of 22,be2a18c6708f690153a39614e6d0e31c
Marble 21 Ice Cream,Dessert,Berkeley,CA,United States,37.86804,-122.26798,(510) 649-9103,378737,246 of 592,a336f913e925a25e69820a0d3a75de2a
Sweet Cheeses Cheesecake,Dessert,San Anselmo,CA,United States,37.97561,-122.56261,415-457-2733,5090590,18 of 41,898386095ca3092670fea09345e46524
Treasured Teatime,Dessert,Sacramento,CA,United States,38.54996,-121.50599,916-930-9401,528272,,8f3049e389a9f833a8feaba2e926a8b2
Yogurtland - San Jose,Dessert,San Jose,CA,United States,37.25778,-121.87619,4089789868,3735831,,506f93f34158386d8be846a266561f4f
Yum Yum Yogurt Kingsburg Ca,Dessert,Kingsburg,CA,United States,36.51788,-119.55744,1(559)897-2449,4877742,14 of 38,69d2ba425029ab979e948873984989b2
Ethiopia Restaurant,Ethiopian,Berkeley,CA,United States,37.856686,-122.25962,510-843-1992,469244,199 of 592,441c52da8eac4bf5c21dc2a8962c383d
Zeni Ethiopian Restaurant,Ethiopian,San Jose,CA,United States,37.3004,-121.98206,408-615-8282,799524,"19 of 1,898",d97259b06ab987faaf83dc9b8d4c1dc4
Arby's,Fast food,Modesto,CA,United States,37.68974,-121.03235,209-529-5924,2514919,193 of 460,8c77c893b50e14687ecb6b0b900814b8
Arby's,Fast food,Chula Vista,CA,United States,32.64727,-116.96766,619-482-0265,849695,123 of 393,26bb630c7947f7d4c21c2eb8a412fe0c
Burger King,Fast food,Salinas,CA,United States,36.70507,-121.65312,831-449-6166,823124,,60e024ced7f650867284a68012da2c8d
Chipotle,Fast food,Marina del Rey,CA,United States,33.9793,-118.43974,310-821-0059,1007782,49 of 116,eca39226ddf75b9f5669ff53f5dd4fe4
Chipotle Mexican Grill,Fast food,Castro Valley,CA,United States,37.69556,-122.07703,510-582-8643,1117440,12 of 81,1b73556adf29b3a004a266bfb42538bc
Chipotle Mexican Grill,Fast food,La Quinta,CA,United States,33.70787,-116.28304,760-564-3079,3931575,63 of 99,9b99a3281c34d716846de169c50667d6
Chipotle Mexican Grill,Fast food,Salinas,CA,United States,36.717884,-121.65544,,3314833,13 of 281,3544e10238e2a36526c6c1ed31d0cf33
Cosmos Coffee Cafe,Fast food,La Mesa,CA,United States,32.76483,-117.01941,619-698-4217,859618,91 of 187,9cf5d7bee1a08edf039fda329de88c60
El Pollo Loco,Fast food,San Jose,CA,United States,37.3019,-121.95005,408-984-6860,878976,"647 of 1,898",cfccdb716e734b3b34e7da4f2013abff
Golden Acorn quick mart,Fast food,Campo,CA,United States,32.70037,-116.35588,,3916877,,64c211d42135ae8a8c3974d0dceba897
Hot Dog On A Stick,Fast food,Roseville,CA,United States,38.77247,-121.26587,(916) 788-0552,4327986,198 of 368,f902b5f73fcaf1fc9fc6b59f98706ad7
Hot Dog on a Stick,Fast food,Cerritos,CA,United States,33.86229,-118.09462,,1138736,,b8178ec8c157b7a0f70ad2c6f4a20713
In N Out Burger,Fast food,Sacramento,CA,United States,38.63684,-121.50417,(800) 786-1000,2503326,"26 of 1,732",b998accf366c4715c07b0c5e9dccada1
Jack in the Box,Fast food,Chino Hills,CA,United States,33.983395,-117.71508,909 597-8995,6414800,43 of 125,543c9b4e7b7e423f2b34a98424cbc10c
Jack in the Box,Fast food,San Carlos,CA,United States,37.500557,-122.25237,,3825957,45 of 112,9207390e3c9c983f05d53f28da9d7147
Jersey Mike's Subs,Fast food,Solana Beach,CA,United States,32.995724,-117.25462,858-259-9111,2314766,53 of 66,d0583fbba9bcbe8b7cb88d3c3b1da43a
McDonald's,Fast food,Carpinteria,CA,United States,34.39645,-119.51247,805-684-7818,845439,44 of 61,8fffc2325f4a89f9c264c61eafdf9181
McDonald's,Fast food,San Jose,CA,United States,37.37474,-121.91918,(408) 436-0760,848898,"784 of 1,898",e8853066b9d0f61d640667c8dccabb1f
McDonald's,Fast food,Coachella,CA,United States,33.71006,-116.18249,(760) 347-9971,869990,18 of 44,51c5ee9837d4d84ab23417323a003bf5
Pick Up Stix,Fast food,Chino Hills,CA,United States,34.002544,-117.73154,909-548-4408,811510,53 of 125,1540b96d060f19d8e2099da56895e4be
Taco Bell,Fast food,Manteca,CA,United States,37.79742,-121.21188,209-239-1329,821840,58 of 142,972f28932a9f612f6bb5ecfec25457e4
Wendy's,Fast food,Ramona,CA,United States,33.03665,-116.87831,760-789-3530,913498,18 of 50,e81a60ace5d1f32a95166c07c5195ac2
Wendy's,Fast food,San Jose,CA,United States,37.31604,-121.87369,408-287-9903,875292,"317 of 1,898",391fd7761c62aa315bd952fbee49c990
"Wendy's- CLOSED",Fast food,Salinas,CA,United States,36.70431,-121.66686,(831) 424-4469,829138,,b1bfdb0352670cd0ba2047ce56a20773
"Ambience- CLOSED",French,Carmichael,CA,United States,38.61862,-121.32857,(916) 489-8464,1987789,,aab229ec2d2939fcaf2d7352c6ae4930
Carson House,French,Beverly Hills,CA,United States,34.06595,-118.37924,,4459871,177 of 269,ec43aacdf9f49c2e1e03e44312087664
Chaumont Bakery and Cafe,French,Beverly Hills,CA,United States,34.06611,-118.39912,,3863635,59 of 269,d77e847963bf00fc016ffba5e37f1aec
Cheese Steak Shop Incorporated,French,Berkeley,CA,United States,37.86888,-122.29296,510-845-8689,469267,120 of 592,5c2a664b5197ddbe4ee15a8f05b2ca66
Emile's Restaurant,French,San Jose,CA,United States,37.32846,-121.88341,408-289-1960,342863,"602 of 1,898",55b221a605d553ec4f5b83b961518b69
French Camp Cafe,French,Manteca,CA,United States,37.86075,-121.22138,(209) 234-3011,835537,57 of 142,2fea3e164ef0cb8afb3cf0c52950cb87
LA Maison Du Cafe,French,Los Gatos,CA,United States,37.262745,-121.96126,(408) 378-2233,843489,25 of 129,73393dc0538b54760fd381d4bf36beec
L'Appart Resto,French,San Anselmo,CA,United States,37.976,-122.56286,415-256-9884,1993435,14 of 41,02eb4f0875176f9748cf6fa6850166c0
Les Baux Bakery,French,Sacramento,CA,United States,38.56069,-121.44389,Website,3729065,"205 of 1,732",0903a8eae9f40c6800ee21208b0b9524
Monsieur Marcel,French,Beverly Hills,CA,United States,34.07139,-118.40163,Website,3863597,124 of 269,180a64411ef4f5c8021d54926c2f4c79
"Porterhouse Bistro- CLOSED",French,Beverly Hills,CA,United States,34.06595,-118.37924,310-659-1099,348035,,f6dd05f5c1f98a6f494ae6035874f22a
"Saigon75 Bistro- CLOSED",French,San Jose,CA,United States,37.33932,-121.88396,(408) 286-4900,633693,,c827acd9dff9bda9060a236b16867d3f
Sultan's Bistro,French,Chico,CA,United States,39.72892,-121.84035,530-345-7455,446788,133 of 275,e7a5a1f953051a62c59dcc0ada01e9a8
The Melting Pot,French,Sacramento,CA,United States,38.580105,-121.486015,916-443-2347,366556,"265 of 1,732",e28384eb4498fda7a5eeb066590f0d85
Trattoria Ulivetto,French,Orcutt,CA,United States,34.863377,-120.44728,(805) 934-4546,615327,4 of 17,d64923240439bf99e81785bb0fde1d69
Bierbeisl,German,Beverly Hills,CA,United States,34.06895,-118.40676,Website,2724144,114 of 269,435c9b5a3dd43f69c2443d182909d961
Gaumenkitzel,German,Berkeley,CA,United States,37.86753,-122.29157,+1 510-647-5016,2022540,81 of 592,2023c97dfa3c5bd1cf0fbf92dc603c23
On The Thirty,German,Los Angeles,CA,United States,34.15141,-118.45172,(818) 788-0330,4586091,"940 of 8,530",60f24885d8b4499454f7c91e580cc784
Russian Family Restaurant,German,San Bruno,CA,United States,37.627598,-122.41634,-4187,2419583,19 of 120,5f06b696f6d15a00689a3ec6d09b726d
Wienerschnitzel,German,Chula Vista,CA,United States,32.60699,-117.0657,619-422-7761,900903,126 of 393,aecca46d7e603794bf7c51e0088198aa
Wienerschnitzel,German,Spring Valley,CA,United States,32.74322,-116.97278,619-670-6905,938211,17 of 65,f135e09a9a6845352c9f60db35b4a4cf
Wienerschnitzel,German,Roseville,CA,United States,38.732,-121.27206,916-783-9112,865297,194 of 368,d613dfb1bb01f2ca67b338b8b3a4311f
Wienerschnitzel,German,Indio,CA,United States,33.71492,-116.22296,(000) 000-0000,473282,,ebb78066c427165d6ba212b1d21835c6
Castle Greek Cafe,Greek,San Jose,CA,United States,37.41052,-121.94629,(408) 456-0346,882040,,967c6282270264274e30093e1a4ead7a
Cugurt,Greek,Los Angeles,CA,United States,34.105515,-118.28741,323-486-7022,6521088,"2,782 of 8,530",bb751995bdcc8534c1a3702ca96bc0b9
Goody's Cafe,Greek,Palm Desert,CA,United States,33.75648,-116.30318,760-345-8941,473392,138 of 234,eb1dfa2ba5a5148525b41403248fd581
Greek House Cafe,Greek,Simi Valley,CA,United States,34.2783,-118.7439,805-955-9899,511027,5 of 228,303d84cd69f94fdd6d71ba0940bd0130
"Greek Village Inn- CLOSED",Greek,Sacramento,CA,United States,38.572655,-121.41259,(916) 922-6334,339824,,cab98521307a3a7478c76769d501a9b1
Nemea Greek Taverna,Greek,San Jose,CA,United States,37.33443,-121.88933,408.279.4275,3975147,"1 of 1,898",e470e1e2062c805bdf9d148d5d70716b
Zorbas Greek Buffet,Greek,Chula Vista,CA,United States,32.64463,-117.09479,(619) 422-8853,535401,4 of 393,625b50461365ff2b4c99441e4a1f0b11
Hiwa Fusion Restaurant and Bar,Hawaiian,Cerritos,CA,United States,33.85849,-118.09026,Website,3737956,60 of 138,d07f2d36654f7468ea80660edb8d323f
Homestyle Hawaiian,Hawaiian,Chula Vista,CA,United States,32.645275,-116.99672,(619) 271-7653,5889537,85 of 393,85ba9e7f11b18a262191dc2af235775a
Kealoha's Island Getaway,Hawaiian,Chino,CA,United States,34.03154,-117.68953,,2636069,15 of 149,f049dbf6963d4994712b32072ef823ea
L & L Hawaiian Barbecuw,Hawaiian,Long Beach,CA,United States,33.80446,-118.18826,,3173870,414 of 958,cf1a713c53acc62962c1f7846e6e4092
Noelani's,Hawaiian,San Carlos,CA,United States,37.50068,-122.25414,(650) 394-8169,4513622,63 of 112,705e2c760f4ed5e50071efdd6e5c3856
Ajanta Distinctive Indian Cuisine,Indian,Berkeley,CA,United States,37.891388,-122.27753,(510) 526-4373,371490,31 of 592,0c0202fdf22b77db00d7f06b09493663
Akbar Cuisine of India,Indian,Marina del Rey,CA,United States,33.98969,-118.44937,310-574-0666,350168,52 of 116,a499071b5e47239353b5196e1b703484
Bombay Bar & Grill,Indian,Sacramento,CA,United States,38.57253,-121.48023,916-441-7100,1785146,"252 of 1,732",18cbfe779d42a8b9e7f0cca10a3b2daf
Bombay Cuisine,Indian,Berkeley,CA,United States,37.8683,-122.294395,(510) 843-9601,378834,312 of 592,f998b5029c847452c1932b0a53b965c3
Bombay Palace,Indian,Beverly Hills,CA,United States,34.06642,-118.38116,310-659-9944,348231,143 of 269,7f4071b84198452b59917b6756f06774
Breads of India,Indian,Berkeley,CA,United States,37.86237,-122.28121,(510) 848-7684,371555,167 of 592,7331590d114c6b6071fad7908ee7fba5
Curry Club Indian Bistro,Indian,Sacramento,CA,United States,38.573223,-121.49011,916-446-7261,2225730,"698 of 1,732",d3d61f5afb70af9300967e5cd6255b65
India Curry House,Indian,Visalia,CA,United States,36.33018,-119.29404,15597391039,4044410,44 of 235,cf985fb8005d80d53260779e9a89b65c
KC Barbecue House,Indian,San Jose,CA,United States,37.24977,-121.79247,,3225089,,ff31dc8e643f6268371fbae059b7f669
Khana Peena,Indian,Berkeley,CA,United States,37.83841,-122.25117,(510) 528-2519,371509,255 of 592,0773370698f432a92e0aec8c11e374ff
Mehak Indian Cuisine,Indian,Berkeley,CA,United States,37.86309,-122.28114,510-841-6118,378821,192 of 592,498bb3d7ecb16cee171c4ed94f780a53
Monsoon,Indian,Sacramento,CA,United States,38.577126,-121.48564,Website,2519573,"235 of 1,732",d99eaad6010e7556e9cb16c090d4648d
"Mughal Restaurant- CLOSED",Indian,San Carlos,CA,United States,37.50768,-122.26086,(650) 592-0133,938081,,761a6fce6ea4abd3c939744e3f5af23d
Namaste Nepal,Indian,Roseville,CA,United States,38.74475,-121.256,,3976101,121 of 368,ac8975451338fd9ec34ea5239a12acb4
Nirvana,Indian,Beverly Hills,CA,United States,34.06645,-118.38123,310-657-5040,348186,119 of 269,f28be778a4a88141d784893904717653
Priya Indian Cuisine,Indian,Berkeley,CA,United States,37.86815,-122.29192,(510) 644-3977,1478684,224 of 592,56cd9440d3dcd47d7853dac3830bd7a0
Punjabi Tandoor,Indian,Corona,CA,United States,33.84834,-117.53911,Website,3672044,51 of 299,6d8a7937f1652e81baa7b3bd3c833b20
Ruchi Indian Cuisine,Indian,Sacramento,CA,United States,38.612988,-121.51697,(916) 927-2600,4199651,"342 of 1,732",9409a2efa8d73cdf6aab8208b9e4f9e8
Satay House,Indian,Berkeley,CA,United States,37.86795,-122.25799,(510) 644-4498,378771,334 of 592,39c24c379604b4500aac0010b8cbeeb8
Shagun Indian Cuisine,Indian,San Jose,CA,United States,37.366,-121.915,(408) 436-7959,848101,"488 of 1,898",da6174ddc2a2db09463a1cb2ebc886ba
Taste Of India,Indian,Long Beach,CA,United States,33.80529,-118.18916,562-595-7525,780092,442 of 958,e2f90841e9e531aa2fcb11c1673a2e28
7 sisters Gluten Free,Italian,Citrus Heights,CA,United States,38.72064,-121.29043,Website,3172633,7 of 140,ddd9999c86be905d1ec4f65d0464d273
Ameci pizza & pasta,Italian,Manhattan Beach,CA,United States,33.8729,-118.38085,,3180331,125 of 177,e30dd94ca62920c820ededd276a6ec4a
Annabelle's,Italian,Sacramento,CA,United States,38.583088,-121.50393,,3488679,"764 of 1,732",0975f384d5944331724176260d077f11
Antonella Ristorante,Italian,San Jose,CA,United States,37.33415,-121.92431,(408) 279-4922,347401,"617 of 1,898",00c8ed33c9b0d1a01ae00dd2219434e3
Betos,Italian,Simi Valley,CA,United States,34.27821,-118.66213,,4582566,8 of 228,6e53b4edbd0280ebf45460643776f40d
Buca di Beppo,Italian,Sacramento,CA,United States,38.58846,-121.41547,+1 916-922-6673,339778,"261 of 1,732",20ec9a0f5aebdf65cda48f06c3b6b34e
Buon Appetito,Italian,Benicia,CA,United States,38.05379,-122.15338,(707) 746-7410,3292558,18 of 63,03d4957095da49df65ccc29b346a3e88
Cafe Malvina,Italian,Chico,CA,United States,39.72863,-121.84107,,3340894,106 of 275,f9fef602f794bbfca15df937be246dd6
Caffe La Pastaia,Italian,San Jose,CA,United States,37.3341,-121.89496,408-286-2626,347408,"256 of 1,898",3fca43448b737cd52e7b37463215f0e4
Cannataro's Family Italian Restaurant,Italian,Chino,CA,United States,34.0285,-117.66763,909-590-7960,2420887,6 of 149,076d99406683cf8610dd27ec339f4ab3
Cicinelli's Pizza & Pasta,Italian,El Centro,CA,United States,32.77717,-115.57082,,2560835,14 of 87,1c543f3cf6686728fd9b594f452b3c37
Cucina Rustica - Montrose,Italian,Montrose,CA,United States,34.205257,-118.22771,818-248-1881,1995120,9 of 50,33c9c4390af5b8068d6202ecc5b74025
Cugini,Italian,Albany,CA,United States,37.89104,-122.28518,510 558 9000,367276,20 of 74,4c69e91949c64e71535d8230273d1f57
De Angelos,Italian,Merced,CA,United States,37.28786,-120.4532,(209) 383-3020,3510925,21 of 138,f50a4dd1c4266061815a93440830cbcf
DiLeone's Italian Restaurant,Italian,El Cajon,CA,United States,32.77018,-116.92789,(619) 579-0049,3457040,37 of 287,51b0480181bc53de769cd907b94a3b90
Divina Cucina,Italian,Montrose,CA,United States,34.204494,-118.22527,818-248-3077,509246,17 of 50,48221e6c1cbedebd242a1f0ef493f43e
Divino,Italian,Belmont,CA,United States,37.51938,-122.27718,650-620-9102,626359,13 of 67,744135d4673eedd61126c28fedb632bb
e.baldi,Italian,Beverly Hills,CA,United States,34.070335,-118.40061,Website,806522,84 of 269,567980d7dbe5cfb045d07f84935b452d
Enoteca La Storia,Italian,Los Gatos,CA,United States,37.22992,-121.98049,408-625-7272,2328359,18 of 129,3718d9ea6cf8601b1543bee514ea9722
Famous Famiglia,Italian,Sacramento,CA,United States,38.69347,-121.59094,,3470148,"661 of 1,732",a405515951fbf1faa2cb29dc9a51fe28
Fratelli's Pizza and Deli,Italian,Montrose,CA,United States,34.204582,-118.22279,+1 818-957-3060,1062990,2 of 50,413442b4971b3e36772cfc459ba1d6e1
Gallo's,Italian,Los Gatos,CA,United States,37.23625,-121.91403,408-358-3661,347427,99 of 129,dc7aee5b7c4937939c5abc3f1c0d5b13
Gardino Fresco,Italian,Los Gatos,CA,United States,37.22399,-121.98337,408-354-8788,920511,61 of 129,cae91a12c108c9cc7609bf48e59fcfc2
George's Bistro,Italian,Valencia,CA,United States,34.44095,-118.57773,661-257-7860,1641173,70 of 164,5df061db7bf21a3b7526d64b64a990e5
Gino's Fine Itallian Food,Italian,Salinas,CA,United States,36.6535,-121.66094,831-422-1814,778856,4 of 281,aa3d83ca4891e89c5ec7249653f167e4
Giovanni,Italian,Berkeley,CA,United States,37.86525,-122.26768,510 843 6678,2536778,152 of 592,5cc1b18c2bb2086a8291694f2a9fed16
Gypsy's Trattoria Italiano,Italian,Berkeley,CA,United States,37.86795,-122.25799,(510) 548-4860,378774,98 of 592,3c5d9d2b72aee6db58d8062bf164f6ec
Il Ritorno Da Marco,Italian,San Jose,CA,United States,37.33508,-121.89283,22250543,1648142,,e78805af54e2992d4d567b671a01d26f
Italian Cottage,Italian,Chico,CA,United States,39.7509,-121.85565,Website,3225060,67 of 275,b2168c9870e4689164b93a1b42ff1077
Johnny Carino's Italian Kitchen,Italian,Modesto,CA,United States,37.68839,-121.04995,209-578-9432,823457,86 of 460,a902ae971fa091267d2ee2878a263ce0
La Dolce Vita,Italian,Beverly Hills,CA,United States,34.067528,-118.40911,(310) 278-1845,521471,111 of 269,e5ffcd6d1a93b1fee79af5add22f8d68
La Tosca,Italian,San Carlos,CA,United States,37.50419,-122.2584,(650) 592-7749,827592,23 of 112,003791c3814fa8917940abe05ab7857b
Lido Restaurant,Italian,Manhattan Beach,CA,United States,33.90182,-118.38654,(310) 536-0730,367441,129 of 177,ebad5c9af8777f5a5beca0817573cc17
LIVELLO at L'Ermitage Beverly Hills,Italian,Beverly Hills,CA,United States,34.07237,-118.39564,+1 310-278-3344,1370297,31 of 269,d6908dd4c2949c62e45581ec49fd5338
Locanda Positano,Italian,Marina del Rey,CA,United States,33.98896,-118.44637,(310) 526-3887,1945661,23 of 116,b0bac1078b270cea6aa1a23a1815a972
Louises Trattoria,Italian,Beverly Hills,CA,United States,34.0692,-118.40098,310-274-4271,490962,163 of 269,87403b6c025ef3472ce69a385bf63bb7
Luca Cucina Italiana,Italian,Berkeley,CA,United States,37.86851,-122.292,(510) 649-9718,2309602,101 of 592,106951440bfab9ba1957e4dee263e6c5
Nutbelly Pizzeria & Deli,Italian,Carpinteria,CA,United States,34.39847,-119.51901,805-684-3354,2410339,22 of 61,0ee38793cb370466dab43624c227318d
Old Venice,Italian,Manhattan Beach,CA,United States,33.88364,-118.41014,310-376-0242,1599578,73 of 177,d669d1a5182a7b42ef9c887655e6a856
Olive Garden,Italian,Chula Vista,CA,United States,32.62768,-117.08744,(619) 498-1717,362506,31 of 393,4b2c527179aedbe6851ce050a7bc9cf0
Pasta Bene,Italian,Berkeley,CA,United States,37.864082,-122.25842,510-845-2363,2590273,68 of 592,ce79434f13ca006624dc5780127f9373
Pasta Market Italian Restaurant,Italian,San Jose,CA,United States,37.339767,-121.90716,408-288-6600,1897659,"421 of 1,898",51a5800e5080d788a9ef62acd412c348
Pietro's Cucina Italiana & Pizza,Italian,La Mesa,CA,United States,32.778946,-117.01696,619-462-1162,1755710,14 of 187,435ca3e6f9b3d64de183d3cc5f527779
Pizza Bocca Lupo,Italian,San Jose,CA,United States,37.3367,-121.89406,408-289-1775,2413821,"13 of 1,898",799174d8df01033f6dc8e3ea53098f1b
Rao's,Italian,Los Angeles,CA,United States,34.08919,-118.33318,323-962-7267,5302979,"2,112 of 8,530",209cad31ab68023c4378ad89a8ff7769
Ricci's Italian Restaurant and Delicatessen,Italian,Bellflower,CA,United States,33.87531,-118.12522,,3807001,4 of 113,0b22351f5c737b9a6c7fb750876eadec
"Rosti- CLOSED",Italian,Beverly Hills,CA,United States,34.063812,-118.39909,(310) 275-3285,468406,,5c0b910e3241313e894b8bc8dfb6dc3f
Sapori Italian Restaurant,Italian,Marina del Rey,CA,United States,33.9739,-118.44556,(310) 821-1740,830346,14 of 116,fba7ed57df4e5c463e4752575869b504
Scarpetta Los Angeles,Italian,Beverly Hills,CA,United States,34.068024,-118.399315,855-460-1677,1973424,43 of 269,530980650240efdb7c88e47b65f6887a
"Sportivo- CLOSED",Italian,Berkeley,CA,United States,37.870472,-122.26707,510-705-1801,2146119,,f2fd8373a2618e48fc07a49f7f5cebea
Tru di Noi,Italian,Malibu,CA,United States,34.03584,-118.68539,Website,3397907,64 of 78,0d66ce6c6721d3bbbff3f3606be7f8f2
Villa D'Oro Restaurant,Italian,Twain Harte,CA,United States,38.039673,-120.23007,209-586-2182,1811036,9 of 14,4938a164576a60fd93146a07c91c31ae
Bobby G's Pizzeria,"Italian, Pizza",Berkeley,CA,United States,37.87205,-122.26897,(510) 665-8866,807027,174 of 592,82ed5ab1af0f48b8f4fabc818ee6aafd
Brooklyn Brickoven Pizza,"Italian, Pizza",Manhattan Beach,CA,United States,33.87514,-118.39592,310-379-6599,802465,90 of 177,c38694d4f09fe49252f54a9dcfd4a306
Del Mar,"Italian, Pizza",Del Mar,CA,United States,,,858-704-4500,5444604,29 of 79,b3c552ab876e35cd76e32b29079756d3
DI Cicco's Italian Restaurant,"Italian, Pizza",Madera,CA,United States,36.95468,-120.05905,(559) 674-5939,880501,23 of 105,fcc8a9c3f2e0adfb9adb097af686514d
DI Pilla's Italian Restaurant,"Italian, Pizza",Rosemead,CA,United States,34.08084,-118.07265,626-286-0275,900732,1 of 114,b92dcd3294260842cf6ffbd92470d729
Ecco's Pizza,"Italian, Pizza",Long Beach,CA,United States,33.81893,-118.17633,562-427-3124,1119790,394 of 958,5e1ea323e348df9c464e9aadc5fc12c6
Eddie's Italian,"Italian, Pizza",Marina del Rey,CA,United States,33.98675,-118.44436,(310) 822-0095,350112,43 of 116,531b8a4dd4e7ab386f64f96ce963314f
Emperor Norton's Italian Rstrn,"Italian, Pizza",San Jose,CA,United States,37.2261,-121.77542,(408) 226-4424,830591,"669 of 1,898",9888539712886e92ea9d1a8ef7918db6
Frankie Johnnie & Luigi Too,"Italian, Pizza",San Jose,CA,United States,37.29213,-121.99452,408-446-9644,347451,"429 of 1,898",a986527d9e96d6fda9d9c4798dd227a2
Giorgio's Italian Food & Pizza,"Italian, Pizza",San Jose,CA,United States,37.274853,-121.89264,(408) 264-5781,793951,"78 of 1,898",d017a78bcabefd8b45b0503858192663
Il Buco,"Italian, Pizza",Beverly Hills,CA,United States,34.067528,-118.38371,(310) 657-1345,348097,116 of 269,aeb4ed78cd25694370258501304fd537
Mario's Italian Cafe,"Italian, Pizza",Indio,CA,United States,33.7414,-116.30376,760-772-6100,473278,11 of 113,fcb955c89720a712a06c14bed9f246c0
Mulberry Street Pizzeria,"Italian, Pizza",Beverly Hills,CA,United States,34.06346,-118.39912,310-247-8100,348027,78 of 269,ed301c3dcfff0c811269b8e7511e68b6
New York Pizzeria,"Italian, Pizza",Chino,CA,United States,34.02753,-117.68927,909-627-8883,1025064,17 of 149,87a596a3c89ccabfc1680b7da31bc22d
Pasquale's Italian Pizzeria,"Italian, Pizza",Carmichael,CA,United States,38.636852,-121.3251,(916) 944-4040,366431,24 of 90,fa15e10991ed4bad7a63e53eab32877b
Pizza California,"Italian, Pizza",San Jose,CA,United States,37.383408,-121.89617,4085737373,342831,"50 of 1,898",77ce47968459d7990d8c7fc16b8b4261
Pozzetto Italian Dining,"Italian, Pizza",San Dimas,CA,United States,34.10667,-117.80728,Website,4018222,25 of 73,d3990c3d8ad1cb786c51e930b6d5da13
Pride of Italy,"Italian, Pizza",San Jacinto,CA,United States,33.78155,-116.95885,951-654-4443,473544,20 of 54,cdeaaf3d1ee21fc6511a47df3ea02510
Toppers Pizza Place,"Italian, Pizza",Camarillo,CA,United States,34.22267,-119.03898,805-385-4444,540463,55 of 170,212f5f8188a4f28196c146a5997b82a9
Ahi Sushi & Grill,Japanese,Alpine,CA,United States,32.83614,-116.77687,(619) 659-1633,2530660,8 of 46,47ea0640aa3527e03527dca316558eee
Akebono,Japanese,Sacramento,CA,United States,38.529064,-121.49586,916-731-8288,2636471,"237 of 1,732",07c0e6b67706b762f743a59afee350fa
Ariake Japanese Restaurant,Japanese,San Jose,CA,United States,37.32297,-121.99391,408-249-8383,347497,"613 of 1,898",27676f2ee2f6159d67f1de211f9772b3
Arigatou Japanese Food To Go,Japanese,San Rafael,CA,United States,37.97522,-122.54491,415-453-8990,937841,,61c6a7ffdfcfc6224d23ca67cfb358b5
Bento Box Japanese Grill,Japanese,Chino,CA,United States,34.031334,-117.68952,909-591-0591,3326493,35 of 149,37765902d1f1d0ccd761ec85a0dc46cb
BlueFin Japanese Restaurant,Japanese,San Jose,CA,United States,37.3318,-121.90518,408-931-6875,1988016,"237 of 1,898",2bd50e23bbff61ec5fd085cd740db463
Edokko II,Japanese,Sacramento,CA,United States,38.5082,-121.54181,916-395-0632,601585,"727 of 1,732",2c2dc5ff8d8068ff8fbe5572c66c4958
Gyu-Kaku Japanese BBQ Dining,Japanese,Beverly Hills,CA,United States,34.06927,-118.37656,(310) 659-5760,350482,65 of 269,cb54e98dd00e7f6b578a6cbfdf31af32
Hana Japan Steak & Seafood,Japanese,Berkeley,CA,United States,37.86382,-122.31348,(510) 848-8515,2317868,87 of 592,01c49c3b79d39a1b47df3695db8ab59f
Honba Sushi,Japanese,San Jose,CA,United States,37.3699,-121.92076,408-392-0087,848894,"466 of 1,898",c82987b97132441f92187276f2202b90
I Sushi Sake Bar,Japanese,Castro Valley,CA,United States,37.696087,-122.07785,(510) 886-8528,873452,7 of 81,18c0b50652ac417c4dd271c705755283
Iccho Restaurant,Japanese,Torrance,CA,United States,33.794075,-118.3301,310-325-7273,538753,229 of 464,2101524af47944f916343148b8645b1e
Ichi Ichi Fusion Shabu & Tempura,Japanese,Rowland Heights,CA,United States,33.988464,-117.9078,626-964-8866,2392110,29 of 133,c0e4849f3b6c3c4af204f8604265c906
Joe's Sushi Shabu Shabu,Japanese,Indio,CA,United States,33.75669,-116.30309,(760) 360-7849,827915,57 of 113,53617794d7c8b11970470c54ead30162
Ju Hachi,Japanese,Sacramento,CA,United States,38.567543,-121.48714,(916) 448-3481,3384488,"592 of 1,732",98f7e569afec46ef9a61080d9fbde7ee
Kahoo Ramen,Japanese,San Jose,CA,United States,37.3159,-121.97831,408-255-8244,816865,"486 of 1,898",9cc04af6128beab713551eee5e65bc3e
Kamameshi House Japanese,Japanese,South San Francisco,CA,United States,37.64359,-122.45264,(650) 952-0444,364884,67 of 138,c004cbfeb4b43ced4fc5d749806ba73f
Kinokawa Japanese Restaurant,Japanese,Long Beach,CA,United States,33.81892,-118.17174,562-427-8737,921717,389 of 958,0f749a414342ffd74fb5a7df27a93404
Manpuku,Japanese,Berkeley,CA,United States,37.85656,-122.25301,510 848 2536,1134310,136 of 592,ffe092ad4b7252e99d3e6ae7011bacd4
Mika Sushi,Japanese,Camarillo,CA,United States,34.237103,-119.03645,(805) 383-2236,3600473,58 of 170,15b4b98796e93c74a7b73a05765fe794
"Mitsuo Narahara Japanese Restaurant- CLOSED",Japanese,Chino Hills,CA,United States,34.00069,-117.7336,909.465.5051,541547,,3f87edcd786e1e3793d4ed2985f89a05
Nagato Sukiyaki,Japanese,Sacramento,CA,United States,38.617413,-121.40106,916-489-8230,822005,"682 of 1,732",bda8ded7f628c49ed5447db5291c8735
New Tokyo Japanese Restaurant,Japanese,Marina,CA,United States,36.68745,-121.79691,831-384-4763,834323,11 of 49,290f345adad8eb46a1054ad0cf2a0f88
Norikonoko Japanese Restaurant,Japanese,Berkeley,CA,United States,37.8639,-122.25861,510-548-1274,883456,305 of 592,0c17aa17332389ce4ec6b75abfc31636
Okayama Japanese Restaurant,Japanese,San Jose,CA,United States,37.34859,-121.89266,(408) 289-9508,847228,"615 of 1,898",cf2d004775d9f71271f2ad9efb772498
O-sho Sushi,Japanese,Manhattan Beach,CA,United States,33.884888,-118.39593,Website,4008312,67 of 177,6fc2b7ac345d877ab4a27e386f6b0e52
"Penny Lane- CLOSED",Japanese,Manhattan Beach,CA,United States,33.88254,-118.40951,(310) 374-6311,918900,,452e8b90bd42f9bc771ff06d3b72c4e9
Ramen Halu,Japanese,San Jose,CA,United States,37.32115,-121.97172,408-246-3933,468155,"509 of 1,898",59d6fec3a17382133cb48019cf378ec7
"Ricksha- CLOSED",Japanese,Sacramento,CA,United States,38.566723,-121.49934,916-442-6246,849658,,cb775a0634bac7e5bb460a51f5cf7775
Shabuway,Japanese,San Jose,CA,United States,37.3159,-121.97789,(408) 252-9970,2634388,"344 of 1,898",07a87d14428345c2f915873338ec2354
Shige Sushi,Japanese,Carmichael,CA,United States,38.660427,-121.32562,916-331-7300,876043,13 of 90,411603804047b3cd760ae14e903ee6d1
Spiral Japanese Restaurant,Japanese,San Bruno,CA,United States,37.627434,-122.41624,650-871-0177,379157,73 of 120,d54763dc75b36f14fde0bd6515f9b1df
Tamaya,Japanese,Sacramento,CA,United States,38.576023,-121.47749,916-498-8388,884882,"494 of 1,732",dd259efdec4e90102265da664b01239e
Teriyaki Plate,Japanese,Citrus Heights,CA,United States,38.67803,-121.31813,(916) 729-3437,910698,,426e1a03c0f41699400727eabd340324
Tokyo Shabu Shabu,Japanese,Rowland Heights,CA,United States,33.99304,-117.90526,626-810-6037,2436647,2 of 133,5d238dd435b500b4d012af98d62e36c9
Toshi's,Japanese,Sacramento,CA,United States,38.56975,-121.34192,(916) 364-1950,903875,,b1cfae59bb0c051ca6f937802adcbeca
Toyo Japanese Restaurant,Japanese,Berkeley,CA,United States,37.88083,-122.2692,510-843-3768,378788,215 of 592,ea602dc238b8f6bac9b505b3502cacad
U-Sushi,Japanese,Beverly Hills,CA,United States,34.06514,-118.39912,310.777.7655,2462510,172 of 269,f58e46e4cd65a5e58a96747b823b1465
"Utage Japanese Restaurant- CLOSED",Japanese,Chula Vista,CA,United States,32.610046,-117.06766,619-425-8980,935838,,be09db8ee4bbaa57ac730a76c36e1f2c
Yakis The Original Teriyaki Bowl,Japanese,La Crescenta,CA,United States,34.21253,-118.24171,818-248-1448,517241,10 of 40,ed6d63765326b132f357cb2f2cd5e48d
Yoko Sushi,Japanese,Roseville,CA,United States,38.74548,-121.266,(916) 786-7714,919593,183 of 368,fcddca5230f50a72e6ae4b74dded0436
Yume Kitchen,Japanese,San Gabriel,CA,United States,34.07993,-118.09556,(626) 280-3232,802862,36 of 201,adbfb87ea4fc2c3228da1ba2cc1fc2c9
Yuri Japanese Restaurant,Japanese,San Jose,CA,United States,37.315308,-121.7908,408-270-7993,832310,"689 of 1,898",9a429afcdaab3052b48c9ec839c21158
Zip Fusion,Japanese,Corona,CA,United States,33.82375,-117.51664,,1916953,110 of 299,9c3612cb999e894307b2debef1c077ed
Burros & Fries,Latin,Chula Vista,CA,United States,32.62816,-117.03833,,4041095,143 of 393,36868a318b0ccd6bb35067d12583b252
Final Gravity,Latin,Roseville,CA,United States,38.73515,-121.22579,Website,4359767,161 of 368,1cb725765cd3db6812c074ba681701fb
Habana Cuba,Latin,San Jose,CA,United States,37.325,-121.912,(408) 998-2822,347397,"144 of 1,898",8ea0893e05fbfd54d3e67be33267989f
Isabella's Restaurant,Latin,San Jose,CA,United States,37.31456,-121.95003,408-248-7378,2253124,"407 of 1,898",aa9d23144cd05253287f31c37e9fb48a
La Catalana,Latin,San Jose,CA,United States,37.41021,-121.94578,(408) 324-1321,3258035,"656 of 1,898",386085c529733f78134164dd09acc68f
Latin Lounge,Latin,San Bruno,CA,United States,37.624977,-122.41125,(650) 589-8200,925519,,f205b12af7f7cf9ae28f34ff655b9d22
71 Saint Peter,Mediterranean,San Jose,CA,United States,37.33617,-121.89366,408-971-8523,342824,"167 of 1,898",92748ba34a771245ac486076ef60edbc
Cafe 225,Mediterranean,Visalia,CA,United States,36.33013,-119.29374,559-733-2967,515025,5 of 235,a4844ed0515c1141bccf3b6aef309e9a
Cafe Grillades,Mediterranean,San Bruno,CA,United States,37.62658,-122.42479,650-589-3778,4137207,13 of 120,1fed787db5f35cb7184449957de40662
Cafe Primavera At The Tech,Mediterranean,San Jose,CA,United States,37.33149,-121.88961,408-885-1094,491281,"437 of 1,898",7ca65d385e0bab819feef3a60c915379
California Mediterranean Grill,Mediterranean,Los Angeles,CA,United States,34.16094,-118.51046,8189956332,4411289,"1,961 of 8,530",96d1003a36c402e623159ab2c8d259e3
Cesar,Mediterranean,Berkeley,CA,United States,37.87962,-122.26919,510-883-0222,371525,62 of 592,730828914a15a0c63ddefaa2031a1872
Cyprus Restaurant,Mediterranean,Berkeley,CA,United States,37.87169,-122.26833,(510)649-9999,4009830,275 of 592,012f47828e9992cad905c6cf05ed965b
Oceanview Cafe,Mediterranean,Manhattan Beach,CA,United States,33.88633,-118.41065,(310) 545-6770,931335,57 of 177,03571285db1278d230322d6b00dee3f5
Petra,Mediterranean,La Mesa,CA,United States,32.78177,-117.03104,,3639120,43 of 187,c7b03df04d42a1c8261b0ae198effd54
Petra Mediterranean,Mediterranean,Chico,CA,United States,39.72995,-121.84153,1 530.899.9958,2350594,51 of 275,0b69160b3cfa53572795c41e9e5a0ae1
Sophia Cafe,Mediterranean,Albany,CA,United States,37.89056,-122.29377,+1 510-526-8663,502901,26 of 74,6753f03051566c4b925f22a8dc87c7ee
The Kasbah Lounge,Mediterranean,Sacramento,CA,United States,38.57616,-121.47794,(916) 442-4388,1849079,"586 of 1,732",ec9c37371c5a120ab5ed9ba685c5d212
The Library at The Redbury,Mediterranean,Los Angeles,CA,United States,34.10269,-118.3267,+(1)(323) 962-1717,5724109,,b5b344a9f92db01466e796e41eaae3ac
Agave Viejo,Mexican,San Jose,CA,United States,37.3351,-121.89287,(408) 971-6096,378430,"721 of 1,898",cb31645f1672027bc94d4a500cd14fe3
"Alberto's Restaurant- CLOSED",Mexican,San Jose,CA,United States,37.32616,-121.90817,(408) 288-5928,847239,,c4c1176069b8d0732f317d4121fbe9ba
Alejandros Mexican Restaurant,Mexican,Chula Vista,CA,United States,32.64694,-116.9685,619-216-8812,514139,137 of 393,69e64da25f3a9b9e64fb6f5e29148bc5
Armando's Restaurant,Mexican,San Gabriel,CA,United States,34.07967,-118.10088,626-307-9700,356264,10 of 201,405d8f1028a8ab8ab8396e8ca1085072
Aztec Grill,Mexican,Trinidad,CA,United States,41.061737,-124.14005,(707) 677-9266,5452794,11 of 15,23e0728c68acf9fb0a3bceb5a43d7da2
Aztlan Restaurant,Mexican,Madera,CA,United States,36.92305,-119.87207,(559) 645-8918,862489,10 of 105,92bb93448c7103619b248c754d527658
Babita Restaurant,Mexican,San Gabriel,CA,United States,34.076283,-118.09093,626-288-7265,341585,2 of 201,772088d0a640e8fe64f9c835d4bd95d4
Beaumont Mexican Grill and More,Mexican,Beaumont,CA,United States,33.93533,-116.97719,(951) 797-0096,3648855,5 of 56,1053840f9745303b2ea44a495149adf4
Birrieria Y Taqueria Chivas,Mexican,Ceres,CA,United States,37.589924,-120.95335,(209) 538-2252,833862,,06553e3613f3a4b1db6994f7f58b851c
Bravo Taqueria,Mexican,Willits,CA,United States,39.41014,-123.35428,707.459.0905,1168633,16 of 35,7250652201272b379d1eeac9a744cc1a
Burrito King Incorporated,Mexican,Ceres,CA,United States,37.59453,-120.95456,209-537-7206,840722,12 of 49,e865029847d72a8d6db4f221c486f71a
Casa Del Rey,Mexican,San Dimas,CA,United States,34.106865,-117.81356,909-592-2776,516947,20 of 73,690422c30bdc027ada64b5f04e51c05f
Casa Guerrero Mexican Restaurant,Mexican,Lynwood,CA,United States,,,Website,2658848,1 of 77,ed7c9e7a7e2427faea7ba62a39a67585
Casa Torres,Mexican,Los Angeles,CA,United States,34.299995,-118.43997,818-362-0384,951111,"2,421 of 8,530",8a8908934a9be81b84d83453ba59d010
CC's Taqueria,Mexican,Jamestown,CA,United States,37.8722,-120.50928,,3965995,12 of 16,23893c75a9ad9cc0192ff92e8e7cc9d1
Centro Cocina Mexicana,Mexican,Sacramento,CA,United States,38.574062,-121.47007,(916) 442-2552,339786,"95 of 1,732",8a526f5a53cdfe94d9a07525f86e44f1
Chagolla's Taqueria,Mexican,San Jacinto,CA,United States,33.78389,-116.95698,951-487-9245,448081,13 of 54,2c9b41231ddbe7c69060723f2bf85239
Chevys Fresh Mex,Mexican,San Jose,CA,United States,37.25359,-121.87575,+1 408-266-1815,343632,"330 of 1,898",ce278325c0f7b50c4bfb1b834d071a86
Choles Tamales,Mexican,Baldwin Park,CA,United States,34.09435,-117.96048,(626) 960-0969,467711,,44ebcaa58a66715d2c5182bac473a9be
Cinco de Mayo,Mexican,Concord,CA,United States,37.9779,-121.99342,(925) 691-8855,1018169,83 of 256,68ac64ae2e4eef2b0e98d232ef3713d6
Cocina de Mexico,Mexican,Big Bear City,CA,United States,34.261124,-116.84955,(909) 585-5458,4467797,8 of 13,6fdfa9637505c2938a584e6da7513e5c
Consuelo Mexican Bistro,Mexican,San Jose,CA,United States,37.3204,-121.94799,408-260-7082,629129,"124 of 1,898",d7221a23d21c67a7e14864acb9be67b8
"Coyote's Mexican Cafe- CLOSED",Mexican,Belmont,CA,United States,37.51164,-122.29411,650-595-1422,514365,,7fea50c9870eacee540470a6a50b2f01
Don Chuy Restaurant,Mexican,Solana Beach,CA,United States,32.98784,-117.25846,858-794-0535,495194,33 of 66,a59720fc825a7ce9046b50855a536a93
Dona Marie Restaurant,Mexican,La Canada Flintridge,CA,United States,34.20201,-118.19483,(818) 952-2735,877493,23 of 54,35691784e9c088fb58c73e24db5f0eb5
El Abuelo Restaurant,Mexican,San Fernando,CA,United States,34.28751,-118.43555,818-365-8283,951094,4 of 80,9d317be071cfd02806875083dd399aea
El Charrito,Mexican,Salinas,CA,United States,36.682983,-121.67159,,5498197,57 of 281,6f09728f5ad8c54b5d9d70daa1cee1b6
El Charro Restaurant,Mexican,San Jose,CA,United States,37.32419,-121.88166,(408) 292-3710,342874,,abfc59bb988c5498f9ce3331c3c4244f
El Dorado,Mexican,Chula Vista,CA,United States,32.606373,-117.066895,(619) 426-4545,936076,158 of 393,f8d1d2ea15f9a6d0f1746c8d3facaad8
El Faro's Mexican Food,Mexican,South San Francisco,CA,United States,37.64659,-122.42814,(650) 589-6288,895590,69 of 138,c53199620012d6674d14935fbe33632f
El Forastero Mexican Food,Mexican,Sacramento,CA,United States,38.61113,-121.44718,(916) 925-1026,4328383,"720 of 1,732",5ff6074e77e2b54a04505766d6106b41
"El Gallo Giro- CLOSED",Mexican,San Jose,CA,United States,37.34021,-121.84253,408-272-4255,814066,,34e89b72f43b79f3fc82665b06f91927
el Patron Mexican Grill,Mexican,Sacramento,CA,United States,38.57463,-121.30412,Website,3500761,,a1cdb336430dd3edf7de41c5f852e887
El Pescador Restaurant,Mexican,San Fernando,CA,United States,34.28286,-118.43981,818-361-6924,948076,12 of 80,c21780548074312296cb7f2ee1fd3829
El Ranchito Taco Shop,Mexican,Hemet,CA,United States,33.747643,-116.94962,(951) 766-6919,473205,19 of 170,6dd21f78a8a3cd2e33c1d28e63222aed
El Taco Grande,Mexican,Carpinteria,CA,United States,34.396336,-119.51247,(805) 684-0135,5262298,45 of 61,b2f1a3d79f2152de3be11c09a65bc0c5
El Tapatio Restaurant,Mexican,Indio,CA,United States,33.71844,-116.21339,760-347-7282,448114,19 of 113,032ac219209bb7f492c8aa4e3bdb082d
El Tarasco,Mexican,Marina del Rey,CA,United States,33.97984,-118.46545,(310) 306-8552,3438547,30 of 116,f318f1c47a54e942c9dba2b35889c895
El Tarasco,Mexican,Manhattan Beach,CA,United States,33.88133,-118.39591,310-406-8399,947259,87 of 177,4c27536a422fbd41fbc46d598729fa55
El Torito Grill - Wilshire Blvd.,Mexican,Beverly Hills,CA,United States,34.06707,-118.40264,310-550-1599,490956,108 of 269,754975c62492473854530b21eab95142
Enrique's Mexican Restaurant,Mexican,Bellflower,CA,United States,33.876324,-118.15129,562-602-1070,357888,2 of 113,308e43d674287eb53876dcf5f1f1bb46
Felipe's Mexican Restaurant,Mexican,Citrus Heights,CA,United States,38.71203,-121.29134,916-722-5400,469089,4 of 140,b20831ebbf9e56cabdd88bec8f67a24f
Florez Bar & Grill,Mexican,Sacramento,CA,United States,38.51959,-121.51232,(916) 429-6864,839087,"310 of 1,732",84d67953f43c544edf53ab86a46fabbd
"Gecko Grill- CLOSED",Mexican,San Jose,CA,United States,37.358433,-121.8903,(408) 971-1826,818857,,bad0b4ed7199f6d9fb3b2b942fcf46de
Gloria's Cocina Mexicana Restaurant,Mexican,Downey,CA,United States,33.95868,-118.14022,562-776-1488,2647371,14 of 218,0ff616ba051d11dffc63a81b088a6611
Hector's Mariscos,Mexican,Chula Vista,CA,United States,32.60814,-117.08046,6195850773,4553821,,971f12a55de0a7e881be01aafea28596
High Tech Burrito,Mexican,Los Gatos,CA,United States,37.23673,-121.96245,(408) 356-5677,844303,75 of 129,62adb7fb1ac4dbab3c61369def20ff6b
Howdy's Taqueria Malibu,Mexican,Malibu,CA,United States,34.03584,-118.68539,(310) 317-4757,446657,29 of 78,8e632f61d50a118f4993d8df307b13af
Jimboy's Tacos,Mexican,Sacramento,CA,United States,38.56834,-121.47011,(916) 452-6451,366435,"358 of 1,732",ad83c036b2ffc4b0bae77cf40fb335f5
LA Burrita,Mexican,Berkeley,CA,United States,37.875507,-122.26034,(510) 845-4859,485827,330 of 592,1291ae957e703b557bbb57df2771cafe
La Cabana Mexican Restaurant,Mexican,Big Pine,CA,United States,42.53818,-110.11064,307-276-5776,4757078,4 of 8,239ea81861bc05e7073979f002cfb285
La Querencia,Mexican,Chula Vista,CA,United States,32.62494,-117.08711,,3847865,42 of 393,25bb6b84991b0429c41248a2efe959f4
"La Tapatia- CLOSED",Mexican,Salinas,CA,United States,36.80335,-121.66717,831-663-6876,839473,,1ca35a0ff20db5166bad544cda55760f
La Terraza,Mexican,Sacramento,CA,United States,38.582253,-121.5163,916-440-0874,679973,"700 of 1,732",2d078a72509d089c72dc2142f538d53b
Lacasita Mexican Restaurant,Mexican,Palm Desert,CA,United States,33.75827,-116.30529,(760) 772-7411,473419,151 of 234,caeeb84b8d3e48261036b38b4e0906dc
Lachoza,Mexican,San Jose,CA,United States,37.290504,-121.88104,(408) 269-3100,898725,,c39e77d7516405cbb223c7f4e7669975
Los Altos,Mexican,Truckee,CA,United States,39.32036,-120.208725,(530) 587-7872,473611,54 of 95,467cb2cae4214be3b71ea08bc46165b2
Los Camarones Tacos y Mariscos,Mexican,San Fernando,CA,United States,34.282364,-118.44339,818-361-5887,2714844,,a2c3141b116613f52988de710dc42f33
Los Compadres,Mexican,Sacramento,CA,United States,38.57419,-121.40271,(916) 480-0977,1008543,"618 of 1,732",cc484742051357db58f69cb87897d28a
Lucky Star Cafe Restaurant,Mexican,Carson,CA,United States,33.87534,-118.24879,310-764-4511,4552617,,4a820429bc45d2397fd29a764da0a7cb
Lupes Taqueria,Mexican,San Jose,CA,United States,37.236786,-121.83099,(408) 578-4077,916719,,ea6733dff546cbe02bc5766de6c6bf8d
"Martinez, Allado - Morelia's Taqueria- CLOSED",Mexican,Sacramento,CA,United States,38.5801,-121.49724,(916) 447-6343,836507,,8cd21e81da2caaa4b3108c03ba92308c
Mejia Taco Shop,Mexican,Madera,CA,United States,36.95557,-120.05607,559-673-1570,864921,,81fa15b2c62aef4a56e75496b4cb641f
Metro Balderas 1,Mexican,San Jose,CA,United States,37.32398,-121.88598,408-295-4078,889939,"733 of 1,898",bbaecb5a3892e844364e5981aa8c06fd
Mijares Mexican Restaurant,Mexican,Pasadena,CA,United States,34.13738,-118.15352,(626) 792-2763,343300,101 of 580,32219f387d114538f1467098ddde5b63
MIS Amigos,Mexican,Los Angeles,CA,United States,34.221916,-118.44876,818-893-0368,4509192,,206e9273be7e44e7159474222df0ccba
Money Pancho,Mexican,Camarillo,CA,United States,34.238728,-119.00669,805 484 0591,2228181,46 of 170,b900da6ae5aabd93a80c831d24537d01
Muchos Downtown,Mexican,San Jose,CA,United States,37.33688,-121.88912,(408) 277-0333,342854,"350 of 1,898",b8852165458fbf9ad486f11e21102331
Neo's Deep Creek Drive-In,Mexican,Running Springs,CA,United States,34.210625,-117.08559,909-867-3700,4089264,3 of 6,851e5bf20f23c0bb1e54ac47f91120cf
Nina Maty's Mexican Food,Mexican,Chula Vista,CA,United States,32.605057,-117.06571,(619) 425-9398,936301,,af2f53a66f673e6b7cb372f773cae721
Pachanga Mexican Grill,Mexican,Manhattan Beach,CA,United States,33.90182,-118.38576,,3793203,105 of 177,efb1cca86ae08ed24f34d47055eab022
Pedro's Restaurant,Mexican,Los Gatos,CA,United States,37.2277,-121.98154,408-354-7570,347414,16 of 129,3e69b623816d909002f2e0478cd8111d
Platano,Mexican,Berkeley,CA,United States,37.87198,-122.26965,510-704-0325,642577,216 of 592,7855e7b892b71653dbf0ff976ab481f2
Plaza Jalisco Grill Mexican Restaurant,Mexican,Roseville,CA,United States,38.7515,-121.263,916-787-4050,880794,59 of 368,ff66c8c9dc0cced51352bcf9e4231a7c
Ramon's Taco Truck,Mexican,Planada,CA,United States,37.29536,-120.32485,,3545301,,5eac4117b4e0ba0c7c6b3e3436f5ca72
Ranas Mexico City Cuisine,Mexican,Spring Valley,CA,United States,32.74799,-116.98734,(619) 589-1792,901923,1 of 65,23ddc2a8bd517bc789b8eca3edb914ab
Rancho Las Trancas,Mexican,South San Francisco,CA,United States,37.65178,-122.43144,(650) 583-4751,468833,46 of 138,dcaac8f5bdefbc713d651e08e7d124ee
"Rosa's La Cabana- CLOSED",Mexican,Torrance,CA,United States,33.80155,-118.3512,(310) 378-3667,510507,,cea97abb78e451d0d5aaabe9502439d1
Rubens,Mexican,La Mesa,CA,United States,32.77962,-116.99081,(619) 466-2912,937967,82 of 187,9be5521348236e441f7f02543a7d7c44
Rubio's,Mexican,Chula Vista,CA,United States,32.62883,-116.96472,619-482-2149,2622885,23 of 393,424c5330e1613dab227bf28812bc2e45
Rubio's,Mexican,Roseville,CA,United States,38.74431,-121.25674,916-789-0918,1116761,176 of 368,38a07bf3598c2100d30a0ad79994558b
Rubio's,Mexican,Roseville,CA,United States,38.78291,-121.26572,916-772-5291,1119416,52 of 368,af7d9cd30f884c27a7f433f1e0de8586
Rudy's Carpinteria,Mexican,Carpinteria,CA,United States,34.3958,-119.51387,(805) 684-7839,837419,20 of 61,ccfdc6c34fd1b19e9de5c03415a3e5d9
Rudy's Taco Shop,Mexican,Solana Beach,CA,United States,32.99046,-117.26105,858-755-0788,2398382,9 of 66,bac80b12f94b9bc4f104e5c451055b0a
Sacramento convention center,Mexican,Sacramento,CA,United States,38.572865,-121.46645,,4687589,,7c3bf7a00393729585e70c394e130637
Sandoval's Mexican Food,Mexican,Benicia,CA,United States,38.049294,-122.15892,(707) 746-7830,928700,37 of 63,7ddee674a50f6a12cf7139a100b1c652
Santana's Mexican Food,Mexican,Palm Desert,CA,United States,33.7611,-116.29738,(760)345-1188,2419834,94 of 234,9d1fd5c2c2fd9a9a5abe40dfd3419300
Santana's Mexican Restaurant,Mexican,Coachella,CA,United States,33.67142,-116.18156,,3948852,20 of 44,804a9b07a96f60b33b9ebb2538c321e3
Sarita's Mexican Food,Mexican,Seaside,CA,United States,36.61763,-121.84098,831-394-4407,450153,26 of 77,b627fe60b96dbc4febe1ffd996a504d4
Senor Gomez Courtyard,Mexican,Simi Valley,CA,United States,34.27805,-118.73817,805-527-5763,517229,31 of 228,6c9da232d93aa66f40670f35ebdfbf01
Sion's Mexican Restaurant,Mexican,Manhattan Beach,CA,United States,33.880573,-118.39606,310-372-4504,379144,52 of 177,b81c4e4d98d8411adc7cbe409c8278d0
Sol Tequila,Mexican,Sacramento,CA,United States,38.688023,-121.342094,(916) 334-1093,2321470,"726 of 1,732",1a423ad59d4b3470b5fa00086a3b12cb
Sonora Mexican Food,Mexican,Chino,CA,United States,34.03962,-117.68959,,3601222,21 of 149,feb4b93369062e94b4b52da47f918eb4
Super Taqueria,Mexican,San Jose,CA,United States,37.333275,-121.87552,(408) 292-3470,540414,"228 of 1,898",5ce1bc2301857e71a327a354e8eb9b7a
Taco Rico,Mexican,San Fernando,CA,United States,34.29862,-118.43823,818-361-5917,952524,,1dac7c9078e4cd8e31ed936c0345a7a1
Taco's El Oso,Mexican,San Fernando,CA,United States,34.295708,-118.42432,818-361-9963,948124,,2e5d7db55306a79cc5cca466453acdcf
tacos mexico,Mexican,Los Angeles,CA,United States,34.04543,-118.25368,+(1)2134891840,6167219,,daf80fd7de1e690eccb8d6d2a4cf434d
Taqueria Allende,Mexican,Indio,CA,United States,33.72943,-116.21707,(760) 342-0194,448074,,a7cb0e1e2712306dbb0737af150f1109
Taqueria Apatzingan,Mexican,Manteca,CA,United States,37.797394,-121.23563,(209) 825-2100,865908,65 of 142,f0aef1f975d4d51a1c6cb2bd59cfbcfa
Taqueria Bajia,Mexican,San Rafael,CA,United States,37.972958,-122.5295,,4364253,74 of 212,4f5db220287ecafa8bc77a94e2a87a89
Taqueria Eduardo,Mexican,San Jose,CA,United States,37.29776,-121.95067,408-374-9764,852144,"624 of 1,898",baa3809d29e1e5a07ce997d3f0476053
Taqueria Guerrero,Mexican,Mecca,CA,United States,33.57012,-116.0739,760 396 4700,2636491,1 of 5,feb1535ab53165d51fd7be23d907c8ca
"Taqueria Jalisco- CLOSED",Mexican,Simi Valley,CA,United States,34.28632,-118.70784,805-577-9647,951071,,aa3f8f7ce7af5b917f4fe8ecfba5b7d6
Taqueria Jalos,Mexican,Willits,CA,United States,39.40387,-123.35149,707-456-1110,2425397,13 of 35,e746d865514a168163864a3ced7cfad3
Taqueria Manteca,Mexican,Manteca,CA,United States,37.812428,-121.21964,209-239-2713,835530,46 of 142,49fec909914307020a6fe583f0899a31
Taqueria Rincon Alteno,Mexican,Sacramento,CA,United States,38.64967,-121.50982,916-515-4815,872352,"414 of 1,732",1455f80e1258b1c1095b719013da4583
Taqueria Yvette,Mexican,Manteca,CA,United States,37.797985,-121.2041,209-823-5564,846997,2 of 142,822f5d471244926c25e7d62203dc7a5c
Taqueria Yxtlan,Mexican,Indio,CA,United States,33.71784,-116.21227,(760) 775-3600,852850,68 of 113,1a3ba4b3ea385e555156ed2ee730d940
Tijuana Taqueria,Mexican,Placerville,CA,United States,38.729874,-120.76556,530-622-9517,469181,18 of 100,977c2f525a9a752f3e0b63948b25c4f8
Tio's Mexican Restaurant,Mexican,Fontana,CA,United States,34.13915,-117.43366,(909) 355-7770,2319084,14 of 190,589fb7dbfaf9305c8d026f52e8040ced
Tony's Jacal,Mexican,Solana Beach,CA,United States,32.98872,-117.25854,858-755-2274,495237,10 of 66,1cef043563a9ecd431d1addd54cf9200
Trine's Cafe,Mexican,San Jose,CA,United States,37.321144,-121.87875,408-998-9018,848094,,0b460d0b2d45c4e8e5bf78440e4c921e
Twelve Bridges Golf Course,Mexican,Olympic Valley,CA,United States,38.801044,-121.28955,(530) 583-2723,374927,12 of 26,3d08538d2882d4029712db60996331be
Two Pesos Taqueria,Mexican,Los Gatos,CA,United States,37.26458,-121.98421,408-866-4354,915338,95 of 129,da7b79440ebac0fd59fd0ea872ea2a3a
Yolanda's Mexican Restaurant,Mexican,Simi Valley,CA,United States,34.27165,-118.78585,Website,3489967,35 of 228,e7df9bec219a3a03e0267ad67372d27e
Zendejas Mexican Restaurant,Mexican,Chino,CA,United States,34.01892,-117.70935,(909) 627-1838,517386,38 of 149,ee94491d5dbcdf2bbea1824908e5d8c5
Alborz,Middle Eastern,Berkeley,CA,United States,37.87048,-122.26668,510-848-8877,594960,197 of 592,4c6aed3aadfd8b67c9612ec45198f1e6
Buffet,Middle Eastern,Los Angeles,CA,United States,34.04614,-118.26109,,4572276,,e620396b44dbfb13025388280ad6bc54
Famous Kabob,Middle Eastern,Sacramento,CA,United States,38.58841,-121.40152,916-483-1700,366464,"496 of 1,732",1f98e785894f576a7df77097d75e38d8
Inland Kabob,Middle Eastern,San Bernardino,CA,United States,34.17592,-117.33041,(909) 880-0829,2188236,81 of 275,632b8542574c8cbb2226919d0cd01d44
Maaloufs Taste of Lebanon,Middle Eastern,Sacramento,CA,United States,38.59163,-121.40149,916-972-8768,2141795,"21 of 1,732",1f85059351a5825a9563fbdcf0967962
"Neda Persian Cuisine- CLOSED",Middle Eastern,Simi Valley,CA,United States,34.27901,-118.69034,,1645828,,54ef00e1ba8312402b015b01575cc46b
Rubyroom,Middle Eastern,Beverly Hills,CA,United States,34.06565,-118.37799,310-854-1020,1163408,196 of 269,127f4a288cf40186cc307b02acc1d2ff
Tajrish Restaurant,Middle Eastern,Marina del Rey,CA,United States,33.98272,-118.46085,310-301-3344,1973930,36 of 116,e9676f28087742aada82b31b8f8b809c
Turkish Kitchen,Middle Eastern,Berkeley,CA,United States,37.87237,-122.268394,(510) 540 9997,1008265,227 of 592,0814ed9f63f94a30ddf64eb1b688d8af
California Pizza Kitchen,Pizza,Marina del Rey,CA,United States,33.978264,-118.43698,310-301-1563,468548,89 of 116,2beb0ad59769f6cba2574f96304d05c0
California Pizza Kitchen,Pizza,Beverly Hills,CA,United States,34.06475,-118.39918,310-275-1101,348249,61 of 269,0521e6aaaae37d72403e2b8f70328bf9
Caroline Lomeli,Pizza,Los Angeles,CA,United States,34.2649,-118.52474,8188318500,6229800,,da6222e742741e8e72ce25d9623a2e61
Casa Sorrento Pizza,Pizza,Salinas,CA,United States,36.672012,-121.65531,(831) 424-7311,823113,73 of 281,e8202f144793488c6f976b3ffd1ad3e7
Cheeseboard Pizza,Pizza,Berkeley,CA,United States,37.879894,-122.26933,(510) 549-3183,371485,2 of 592,48292b8b051a0318432970bc8bcb17e9
Chicago Fire,Pizza,Sacramento,CA,United States,38.57506,-121.47376,916-443-0440,1198980,"64 of 1,732",4ea212ef8e9cff35a9e3684254f93db4
Chuck E. Cheese's,Pizza,San Jose,CA,United States,37.31862,-121.8291,(408) 238-9110,342932,,856bf559be690bda9586ecfd28321909
Emilia's pizzeria,Pizza,Berkeley,CA,United States,37.855465,-122.26653,510-704-1794,2550645,302 of 592,72ccac6e9dad1c9c389ab95be5404fc5
Fairytale Town,Pizza,Sacramento,CA,United States,38.539715,-121.50124,(916) 264-8886,339909,"224 of 1,732",851c4da7a30116e894fe5d4b03d3b241
Fast 5 Pizza,Pizza,San Bernardino,CA,United States,34.16491,-117.28703,+1 909-881-1200,4632433,101 of 275,6f6c4a139c37cfb51cf46faefd7630d3
Four Corners Pizza N Pasta,Pizza,Crockett,CA,United States,38.05332,-122.22365,510-787-7203,1144502,5 of 5,29370071d940b8f97d36a2093728088c
Frantones Pizza & Spaghetti Villa,Pizza,Cerritos,CA,United States,33.88745,-118.10242,562-924-9494,525674,14 of 138,1231b726f74b0ce48033e83b78275fc2
Fresh Brothers Pizza,Pizza,Marina del Rey,CA,United States,33.979298,-118.43963,310-823-3800,1892691,54 of 116,97b82247058c4d9f6583038bc55c52f7
Gioia Pizzeria,Pizza,Berkeley,CA,United States,37.881832,-122.28148,510-528-4692,804241,112 of 592,f123d9b9701cbd56dd6c38e16142cf38
Giovanni's Old World New York Pizzeria,Pizza,Sacramento,CA,United States,38.55539,-121.43023,916-455-8831,1008545,"177 of 1,732",5b1eaa214c5b79aeb9c35d0ca028bdc0
Klondikes Pizza,Pizza,San Jose,CA,United States,37.32456,-121.79838,(408) 238-6700,881424,"362 of 1,898",cb6fe15b6f81dc688eb959d7a35fe44b
Kraving Kebab Pizza,Pizza,Modesto,CA,United States,37.63816,-120.96065,(209) 524-1985,861088,,80d25f30db9f1733f349a71380080551
Lamppost Pizza,Pizza,Sacramento,CA,United States,38.62838,-121.47553,(916) 929-2222,871645,,fec61bcda1aa61621abb37dbd1cfd3a7
Lanesplitter Berkerly,Pizza,Berkeley,CA,United States,37.86849,-122.29189,510-845-1652,538545,137 of 592,5fdf3c21698769bfdf903833f9da5b07
Lenzini's 2-4-1 Pizza,Pizza,Los Angeles,CA,United States,34.02458,-118.41151,+(1)3105598241,6352183,,c5c082e0d576b1edb0c8d9844c5cb365
Little Bear Pizza,Pizza,El Portal,CA,United States,37.66075,-119.85192,Website,2362815,3 of 6,c41e7bfc2c473213cdc0dd20af4d8346
Little Cesear's Pizza,Pizza,Chula Vista,CA,United States,32.63161,-117.08965,(619) 409-9921,895920,112 of 393,14fd6eefe1628833c0392fe95e315a85
Live Basil Pizza,Pizza,Los Angeles,CA,United States,34.04421,-118.27065,Website,6205762,"1,548 of 8,530",c1bc66677c2839d5d5b9513a1151c116
Masullo Pizza,Pizza,Sacramento,CA,United States,38.55923,-121.50056,916-443-8929,1139557,"161 of 1,732",654ebedf759c32fe56750d3e563f9af5
Me-N-Ed's Pizzeria,Pizza,Madera,CA,United States,36.95198,-120.08036,(559) 675-9613,881118,27 of 105,76f541af6e230e21962402145e42ecf9
"Michael's Pizza- CLOSED",Pizza,Bellflower,CA,United States,33.87288,-118.1108,562.920.7071,510486,,8e11a0758e322aa88a344f7372a7db36
Milano Pizza and Greek,Pizza,Modesto,CA,United States,37.68516,-121.05032,209-522-5555,3823314,91 of 460,ca4bb83c2405eaece50f3e675ba2a579
Mountain Mikej's Pizza,Pizza,Roseville,CA,United States,38.744164,-121.25712,Website,2707620,201 of 368,84fd99f11cd435620eb7928a7be8b234
Mountain Mike's,Pizza,Carmichael,CA,United States,38.61005,-121.34711,(916) 486-1010,852930,47 of 90,1e464a19eceb4a4ec65a15bb31f23f3a
"Mr Pizza Man- CLOSED",Pizza,Berkeley,CA,United States,37.872055,-122.26902,510 841 6060,378742,,5ae71926ed6ea08d01ce9c275863dcc8
Niccolo's Hillside Pizza,Pizza,Rancho Palos Verdes,CA,United States,33.753326,-118.30921,310-833-6440,966025,21 of 48,b5b6023179407a35100cebf10b6383ab
Nonno's Pizza,Pizza,La Mesa,CA,United States,32.776142,-117.02782,(619) 337-9559,833062,44 of 187,0d6804a4d2b32d04f404560d67690212
One Speed,Pizza,Sacramento,CA,United States,38.561466,-121.44592,Website,3419110,"135 of 1,732",c71a8ccc86b1f1d6b2c9fd9bedefd2b2
Paisano's Pizzeria,Pizza,Ione,CA,United States,38.353462,-120.93525,530-274-6313,1797764,2 of 11,145d74caa0577819810179838782963f
Papa John's,Pizza,South Pasadena,CA,United States,34.1167,-118.15033,626-441-8484,812508,36 of 70,d33fada08a426dc27c4566e731ad1eb3
Pazzo Pizzeria,Pizza,Los Angeles,CA,United States,33.75219,-118.30817,310-519-3598,967971,"3,586 of 8,530",3e7b091c756a4335c4eec2764c64cbcc
"Pieces Pizza- CLOSED",Pizza,Sacramento,CA,United States,38.57281,-121.48011,(916) 441-1949,446515,,bdc0412c791b05b4527d45b4dfb9a51b
Pizza Express,Pizza,Castro Valley,CA,United States,37.68377,-122.073875,510-582-3190,925182,41 of 81,33008d54f73c39d7a146c3bd405bbba9
Pizza My Heart,Pizza,San Jose,CA,United States,37.299812,-121.7717,(408) 238-6000,1473627,"444 of 1,898",f14b58f1f07b0b3a5860c2eeeeb57064
Pizza My Heart,Pizza,San Jose,CA,United States,37.25028,-121.85786,Website,3830479,"157 of 1,898",60418f1b114cd21aa64770d5e9725702
Pizza Plus Jamestown Ca,Pizza,Jamestown,CA,United States,37.95395,-120.42273,12099843700,4339596,5 of 16,86d7148acd3988388446560afa56ac33
Premier Pizza,Pizza,San Jose,CA,United States,37.398155,-121.92319,408-944-0664,446570,"696 of 1,898",b5ddacb44134552a62504d6cee3ca59e
Premium Pizza,Pizza,San Jose,CA,United States,37.26479,-121.915,(408) 266-5555,4545292,"186 of 1,898",5f257c5e1cdc82fafa9d69f18bf51d3c
Ricco's Pizza,Pizza,Bell,CA,United States,33.978622,-118.19273,(323) 773-9082,931919,3 of 37,71c62f156a4a7da26cbf21341e1db232
Ricky's House of Pizza,Pizza,Orcutt,CA,United States,34.896786,-120.43609,(805) 938-1126,822324,13 of 17,5c8492737d1388d10f1982d1027ed472
Rosati's Pizza,Pizza,La Quinta,CA,United States,33.70727,-116.27491,Website,1995595,65 of 99,f4aaa80ce183a86deb67556052f4ac03
"Round Table Pizza- CLOSED",Pizza,Apple Valley,CA,United States,34.52474,-117.21607,760-961-9867,1581713,,27ee86b1ee2884ee060f9a0bcde04888
Sammy's Woodfired Pizza & Grill,Pizza,La Mesa,CA,United States,32.781868,-117.01241,619-460-8555,1176258,23 of 187,73ef16b11ec76d1c1f4d62a187bbd3e6
San Carlos Italian Pizza,Pizza,San Jose,CA,United States,37.336372,-121.87676,(408) 297-0120,847233,,c74b2339f48424e5e5318af475e2c6ba
Shakey's,Pizza,Chula Vista,CA,United States,32.629086,-117.08872,(619) 425-0211,4334928,109 of 393,f0f8e88dce6c4fb2c6c9db233def8a88
Slice of Old Sacramento,Pizza,Sacramento,CA,United States,38.582596,-121.50437,916-443-6761,4711884,,47b460ae6d38a89e74b531c5b9648cfc
Stadium Pizza,Pizza,San Jacinto,CA,United States,33.77294,-116.97254,(951) 654-1142,448050,10 of 54,052587cf454c815377183a283a6b4503
Straw Hat Pizza,Pizza,Chino,CA,United States,34.02502,-117.68946,909-627-1534,999289,69 of 149,f193bc1ab93e141dc411f657923b6080
Straw Hat Pizza,Pizza,Sacramento,CA,United States,38.5473,-121.3611,(916) 364-0242,901912,"765 of 1,732",9f0024b77a139fe5c96d95aed9e7d17b
"Straw Hat Pizza- CLOSED",Pizza,Sacramento,CA,United States,38.65311,-121.5259,(916) 515-1515,1049002,,e4ddca000adf46c515ac025603d546f5
The Mug,Pizza,San Bernardino,CA,United States,34.13611,-117.32215,,2222550,31 of 275,9eedb902a9dd7482a039750e2c96ecc8
"Three Flames Pizza- CLOSED",Pizza,Manteca,CA,United States,37.79747,-121.19404,(209) 824-2143,846994,,b0eed4fcd0349dbe6f22e436284f7e65
Upper Crust Pizza,Pizza,Sacramento,CA,United States,38.578373,-121.49002,(916) 444-0844,857162,"250 of 1,732",e849de958943b3d8711e6d7c9eed83f4
Willow Street Wood-Fired Pizza,Pizza,Los Gatos,CA,United States,37.22216,-121.98413,408-354-5566,468366,17 of 129,3381213b495ad8a3fba41e228f8aeeba
Zano's Family Italian & Pizza,Pizza,Truckee,CA,United States,39.32611,-120.20975,(530) 587-7411,832850,37 of 95,a49504010a24a5c97f05fe6b136776a1
Zelda's Original Gourmet Pizza,Pizza,Sacramento,CA,United States,38.57146,-121.4807,916-447-1400,339769,"202 of 1,732",9a2e8ef88c951360c8696129d3763711
888 Sea Food Restaurant,Seafood,Rosemead,CA,United States,34.08047,-118.08345,626 573 1888,509947,6 of 114,3f044a3bb2caf8a2009929fc6ed68cde
Blue Fin Grill & Sushi Bar,Seafood,Simi Valley,CA,United States,34.26075,-118.79616,805-584-9668,558879,43 of 228,5c88b2d83ea93a449a83ab9dafd9ca72
Blush Raw Bar Lounge,Seafood,San Jose,CA,United States,37.336395,-121.89491,Website,3943029,"341 of 1,898",ff175a1e49d97489cb83e45f1c4e95b6
Brigantine La Mesa,Seafood,La Mesa,CA,United States,32.778187,-116.99642,(619) 465-1935,540880,5 of 187,39583942ae82e9e1160b4ebdd614fa0e
Brigantine Seafood Restaurant,Seafood,Del Mar,CA,United States,32.97941,-117.26907,(858) 481-1166,521419,15 of 79,e70fb8272569e954fd0f6a5accce5d4f
Charley Brown's Steakhouse,Seafood,Rosemead,CA,United States,34.04023,-118.08144,626-288-6001,900731,11 of 114,c617675d576e3a7e0d5e0000c07fda4e
"Kingfish Seafood Restaurant- CLOSED",Seafood,Solvang,CA,United States,34.59439,-120.13876,Website,4230148,,e9ea27292289112c36a1eeaa9db27fc6
Pacific Fish Grill,Seafood,Chino Hills,CA,United States,34.001247,-117.73021,(909) 902-0099,3657830,11 of 125,006d019154425dfcabfe7049b568ab33
Seaside Cafe,Seafood,Carmichael,CA,United States,38.66804,-121.31266,(916) 962-2595,910692,49 of 90,209544b55c448c963c17467955bca38e
Tugboat Fish & Chips,Seafood,San Jose,CA,United States,37.249306,-121.84541,408-225-8983,2340271,"284 of 1,898",b1edf6009efc5de941ca46f361f7369c
5th Street Steak House,Steakhouse,Chico,CA,United States,39.72657,-121.84059,530-891-6328,503519,4 of 275,8ecb331ee9be04703757e804ffb26fd3
Black Angus Steakhouse,Steakhouse,San Jose,CA,United States,37.25049,-121.86909,(408) 266-6602,1153263,"785 of 1,898",41d76a2f8d1ab3dc1dcfc0446c05aa80
El Rancho Steak House,Steakhouse,San Jose,CA,United States,37.282204,-121.83865,408-629-1807,905011,"213 of 1,898",11ad710de2af7a43c319a8e934b512e7
Fultons Prime Rib,Steakhouse,Sacramento,CA,United States,38.584103,-121.50368,(916) 444-9641,654185,"805 of 1,732",3e35b19031b4d160f8a937e54f613e09
Harris Ranch Restaurant,Steakhouse,Coalinga,CA,United States,36.25457,-120.2344,800 942 2333,626732,1 of 28,361c5848cfe0fdbb01c0519ebbe447cf
Lawry's the Prime Rib,Steakhouse,Beverly Hills,CA,United States,34.06783,-118.37607,310-652-2827,350100,7 of 269,6b1e8b3ea2550370d14973bad5dadeb0
Outback Steakhouse,Steakhouse,San Bernardino,CA,United States,34.06586,-117.27211,909-890-0061,345486,26 of 275,96582eaef2b93abc9dc266faaa716564
Outback Steakhouse,Steakhouse,La Mesa,CA,United States,32.7822,-117.0327,619-466-9795,362339,21 of 187,69204eb51ea9db2030d15d818ea092ac
Outback Steakhouse,Steakhouse,Sacramento,CA,United States,38.59068,-121.41528,916-927-0806,339776,"179 of 1,732",b932d6698c2a7d6e3363dcdc04f9ff56
Ruth's Chris Steak House,Steakhouse,Sacramento,CA,United States,38.57493,-121.41068,916-286-2702,602990,"22 of 1,732",c017425d51df101340a0bd7d2170514c
Spencer's for Steaks and Chops,Steakhouse,San Jose,CA,United States,37.37224,-121.92508,408-437-2170,350033,"242 of 1,898",1b3217c471f03438019eb57a7b28dd74
Sweetwater Steakhouse,Steakhouse,Oakhurst,CA,United States,37.3466,-119.64217,559-658-5252,788226,14 of 45,03cf5936445771c5a206438a44834e8f
Wolfgang's Steakhouse,Steakhouse,Beverly Hills,CA,United States,34.07135,-118.40159,310-385-0640,3636502,74 of 269,9fdf410daa6f8452635fc22b20502085
Aji Ichi Japanese Restaurant,Sushi,San Bruno,CA,United States,37.62821,-122.41132,650-952-2898,468818,1 of 120,60017880a52484fc73063cf1e9d47a3a
Arigato Japanese Restaurant,Sushi,La Mesa,CA,United States,32.77994,-117.03226,(619)469-3157,1094557,92 of 187,33ae6afae5d435a677e4a477fa21908f
Banbu Sushi Bar & Grill,Sushi,La Mesa,CA,United States,32.781586,-117.01298,(619) 589-0071,1747982,6 of 187,da7e2a1651cd228d923f3451d2d0d107
Blue Nami Sushi,Sushi,Roseville,CA,United States,38.75364,-121.25199,916-787-1177,1106638,61 of 368,3834d0682440304632c4703782dbfbc7
Bui Sushi,Sushi,Malibu,CA,United States,34.03416,-118.69298,310-456-1500,1123565,22 of 78,44f8e63574079e750a89c64820fd8eab
Hana Tsubaki,Sushi,Sacramento,CA,United States,38.56665,-121.44228,(916) 456-2849,339800,"59 of 1,732",650891c99ee2621b79e7547b8e9b74ea
Kamakura Japanese Restaurant,Sushi,Los Gatos,CA,United States,37.22544,-121.98258,408-395-6650,468360,70 of 129,8ccb13ad5628e8eaaf2193063db50197
Katsu!,Sushi,Manhattan Beach,CA,United States,33.901016,-118.41772,(310) 546-3761,822608,93 of 177,df1a9fa7f86a8fbc8eb82d51d037e1f7
Mijouri Sushi Bune Restaurant,Sushi,San Bruno,CA,United States,37.637493,-122.42163,(650) 583-0294,364877,44 of 120,b5c49cfc2dcc8e724eb3e71cb48fc16a
New China Restaurant,Sushi,Manteca,CA,United States,37.79736,-121.23968,(209) 825-1517,5243740,33 of 142,12d1cd918c50a83773a94301c897c503
Ozuma Restaurant,Sushi,San Carlos,CA,United States,37.50275,-122.25667,650-637-9793,637732,26 of 112,251e2f313918621f62423763d52d4708
Rock & Roll Sushi,Sushi,San Bernardino,CA,United States,34.176792,-117.33008,909-804-8811,4108189,29 of 275,edce89560c659693c593ea5d2d49950e
Samurai Restaurant,Sushi,Solana Beach,CA,United States,32.994972,-117.25228,858-481-0032,495239,13 of 66,19a90b56c1e76313898260410bd24da5
Seiya,Sushi,San Carlos,CA,United States,37.50461,-122.2589,6505088888,4035260,10 of 112,441000a6d963666f1d76cc7f68d4380d
Sushi 29,Sushi,Berkeley,CA,United States,37.89114,-122.28341,510-559-8229,2569243,97 of 592,1457188c68d06b4857b8a418fa19245a
Sushi Cafe,Sushi,Sacramento,CA,United States,38.53481,-121.49346,(916) 452-6888,528265,"104 of 1,732",e8cccc23cec968f95189b0734f985133
Sushi Cafe Express,Sushi,Sacramento,CA,United States,38.56987,-121.46651,(916) 451-6888,1853288,"405 of 1,732",7f29683363a645da9f5f978df98f03ad
Sushi California,Sushi,Berkeley,CA,United States,37.87117,-122.27296,510-548-0737,469249,190 of 592,fbd6f77e6f54ad3379fdd634e4ff0615
Sushi Infinity,Sushi,San Jose,CA,United States,37.33165,-121.90881,,3546680,"610 of 1,898",0902989778ab9f5edb81a397d5cf9d7f
Sushi Masa,Sushi,San Jose,CA,United States,37.241276,-121.90521,408-265-3232,838268,"445 of 1,898",1941d0c534e95db186888e70fb13077f
Sushi Raw,Sushi,San Bruno,CA,United States,37.615,-122.40621,650-872-2218,2256204,65 of 120,3894dc05b27a53c551c75ee6e0b09ed2
Sushi Solana,Sushi,Solana Beach,CA,United States,32.990673,-117.27176,858-350-0099,618384,49 of 66,5eda134f67ba40a59c899ffb4bb26119
Sushi Sushi,Sushi,Beverly Hills,CA,United States,34.061195,-118.39902,310-277-1165,468380,103 of 269,a2da1df0f301571c652edb33edf60ada
"Sushi YA- CLOSED",Sushi,Castro Valley,CA,United States,37.6965,-122.08674,510-886-9708,467755,,242e35cd5a4a534c505f7593f2a1e53e
SushiStop,Sushi,Los Angeles,CA,United States,34.10524,-118.3188,323-468-2496,5815753,,ca25eb562b46ce43a719974c6c741398
Urasawa,Sushi,Beverly Hills,CA,United States,34.06733,-118.4011,(310) 247-8939,348175,110 of 269,4881d70eeb7d0afe9a5737035c4a885c
A Bakery and Thai Food,Thai,Sacramento,CA,United States,38.54685,-121.42822,(916) 451-5411,3690585,"278 of 1,732",f0c52ff068cb6767175cda11e5d8af38
Amarin Thai Cuisine,Thai,San Jose,CA,United States,37.29206,-121.99393,(408) 253-8424,486640,"667 of 1,898",53b540aaac55ddf99e3d0a1e7b6e4b70
Baan Thai Restaurant,Thai,Seaside,CA,United States,36.61357,-121.84324,(831) 394-2996,819091,3 of 77,efe6dfb205869f0739f3f54369ccf3b8
Bamboo Garden,Thai,Chula Vista,CA,United States,32.623257,-116.99671,Website,4035617,151 of 393,09f1f39bc2956ddf928a78743d2e9475
Bancok Jam,Thai,Berkeley,CA,United States,37.891373,-122.27681,,4548292,,47fd7b155ede13a02b48b421c33774d7
Blue Mango,Thai,San Jose,CA,United States,37.322716,-121.990364,408-248-7191,347389,"318 of 1,898",c620bd99360e3bb69e2c5ec977b6a7f5
Buddha Thai Kitchen,Thai,Middletown,CA,United States,38.75419,-122.61431,,3821967,8 of 14,92457876876ab3e6ffee70d4cbb2e280
"Chan Dra Thai Restaurant- CLOSED",Thai,Pasadena,CA,United States,34.138878,-118.1473,(626) 577-6599,344314,,d2758c0683f429547d58e7c6f7356b0e
Citrus & Spice,Thai,San Rafael,CA,United States,37.97363,-122.53297,415-455-0444,678777,109 of 212,7a07607db65016dec2434e49416352fc
Class 302,Thai,Rowland Heights,CA,United States,33.99705,-117.88833,626-965-5809,1034748,16 of 133,7b57c5ecae3406c5a33cb10373f4b129
East Wind,Thai,Marina del Rey,CA,United States,33.9889,-118.45092,310-823-9678,350373,24 of 116,ad722db427b77bc1fafb9877c957b0eb
gecko gecko,Thai,Berkeley,CA,United States,37.87073,-122.27062,Website,2149298,57 of 592,295710adbdea65b6cab56556d3e5f87e
Kinnaree Thai Cuisine,Thai,Manteca,CA,United States,37.79742,-121.21434,(209) 824-1294,865906,3 of 142,46b0cafb094100c194225fdd8c45d3a7
Ladda Thai Cuisine,Thai,San Jose,CA,United States,37.365585,-121.91617,Website,4120759,,a3e40d4c2cdcb39d47ba584cfc9e8b04
Narai Thai Cuisine,Thai,Downey,CA,United States,33.946438,-118.14492,562-928-4632,888120,4 of 218,a278fc40a07e74352ab5f36991cb5c18
Ruen Thai,Thai,Roseville,CA,United States,38.75249,-121.25201,916 774 1499,645631,18 of 368,cb23bb7c4e747688fac7113b40f9028d
Siam Chan,Thai,Los Angeles,CA,United States,34.003,-118.4348,(310) 915-7408,4723305,"3,134 of 8,530",5acf881b4f1cd286640c6ce6c9e30068
Siamese Kitchen,Thai,San Carlos,CA,United States,37.50595,-122.26031,650-592-3277,544191,15 of 112,871e148ce1d8065ece147e794b1f519d
Thai Chef's House,Thai,Sacramento,CA,United States,38.61723,-121.40147,(916) 481-9500,3834132,"513 of 1,732",0a8eb2da260127b9a7f2fa685d8b02f4
Thai Dishes,Thai,Manhattan Beach,CA,United States,33.88622,-118.39608,310-546-4147,355493,69 of 177,542212d8b9cb8b47f8a6d7c1d1a3745f
Thai Nakhorn,Thai,San Bruno,CA,United States,37.62342,-122.41125,650-583-7555,873454,7 of 120,3e228c838d9aadd9ec4cccd3761a1340
Thai Noodle,Thai,Berkeley,CA,United States,37.87323,-122.26851,,1165441,135 of 592,eb5350ff388caa81ec46f70ee20136e3
Thai Thai,Thai,Bishop,CA,United States,37.37128,-118.366104,,1804442,13 of 48,453c9430eaadcaaad3878f9e0812308c
Tuk Tuk Thai Cafe,Thai,Berkeley,CA,United States,37.864536,-122.26777,510-540-6360,378755,221 of 592,2cded45d473c3f14da165b6a5c3058f5
White Elephant Thai Cuisine,Thai,Half Moon Bay,CA,United States,37.46893,-122.43377,,1974240,59 of 82,8b31f0b6322f709e46e334b626e2b59d
Your Place Thai Cuisine,Thai,Berkeley,CA,United States,37.869865,-122.28754,510-548-9781,485831,214 of 592,67372dc5c6a1d5004a3852e04998e473
All Seasons All Reasons Fine Catering,Vegetarian,Sacramento,CA,United States,38.55336,-121.48357,(916) 451-9393,856348,,ecd2cbe13d346ec479c28bf14f26197d
Andy Nguyen's,Vegetarian,Sacramento,CA,United States,38.56001,-121.48641,(916) 736-1157,492352,"121 of 1,732",c4da0239fdf1eb40cf1da81b52fcc7c2
Baagan,Vegetarian,Roseville,CA,United States,38.783737,-121.28644,9167712117,3536323,3 of 368,88aafd882db3c820d86ca98c1a5d8375
California Fresh,Vegetarian,Sacramento,CA,United States,38.575684,-121.41549,(916) 649-8046,3914892,"811 of 1,732",030aca45b75326f14ae7ddef901685e4
"Rainbow Acres- CLOSED",Vegetarian,Marina del Rey,CA,United States,33.979866,-118.440155,(310) 823-5373,1140078,,1069d3f30782a326464d710a243ce078
Veggie Grill,Vegetarian,San Jose,CA,United States,37.32051,-121.94932,Website,3955311,"4 of 1,898",c798b7997b27491862eea104c73d14e8
Anh Hong Restaurant,Vietnamese,Berkeley,CA,United States,37.87205,-122.26907,510-981-1789,1025655,234 of 592,73f73ecb5035fff87f5338e10ccae406
Bamboo Cafe,Vietnamese,Simi Valley,CA,United States,34.279,-118.73985,Website,3850272,70 of 228,1a3785ccf62be0b5ef4d13ac9d4cec93
"Banh Cuon Tay Ho- CLOSED",Vietnamese,San Gabriel,CA,United States,34.08041,-118.08474,(626) 280-5207,802503,,bd5406d5b7f9552dfee9b5e57780ffc3
Banh Xeo Dinh Cong Trang,Vietnamese,San Jose,CA,United States,37.33247,-121.85419,408-280-1152,892617,,3fd75a5c4413b2264c3fd5d463d54294
Chow Pho,Vietnamese,San Bernardino,CA,United States,34.06676,-117.26334,909-478-7777,4957466,44 of 275,f304bf672ed5d7dd3af06eb14a110548
Claypot,Vietnamese,Berkeley,CA,United States,37.86093,-122.28943,,4065607,217 of 592,73c0131f3a009c6170604329edcd8804
Com Tam Thien Huong,Vietnamese,San Jose,CA,United States,37.33247,-121.85419,(408) 275-6650,3801213,"637 of 1,898",1e97fda95fb7c59ebd725c27256ab9dd
Com Tam Thien Huong,Vietnamese,San Jose,CA,United States,37.29953,-121.8396,408-365-1434,3159587,,82ef09bdefd9cc7d801857571216a367
Hoa Viet,Vietnamese,Sacramento,CA,United States,38.56083,-121.48886,(916) 443-7888,339897,"611 of 1,732",912a6695018b64aa3f0c81bb14dfc8a1
Nem Nuong Ninh Hoa,Vietnamese,Rosemead,CA,United States,34.08406,-118.07266,(626) 286-3370,799646,28 of 114,c930e9f02ef9bf9269bc77fa7fe496da
Nha Trang Restaurant,Vietnamese,San Jose,CA,United States,37.323093,-121.82465,408-274-6666,520985,"790 of 1,898",fe7383331e5057a7bc9971bc6ccceb41
Pho 69,Vietnamese,San Jose,CA,United States,37.33546,-121.89007,(408) 289-8521,3258799,"201 of 1,898",55b5644945dcb24ff5454adef064798b
Pho Hang,Vietnamese,Roseville,CA,United States,38.78356,-121.28658,916.771.2565,2546232,81 of 368,efbe366f975164d611970e9925433254
Pho King Way,Vietnamese,Carson,CA,United States,33.84044,-118.25818,(310) 327-5464,4601979,21 of 151,17bf314d70cf873b3ef6dac6faab1e53
Pho Super Bowl and Tea Station,Vietnamese,La Mesa,CA,United States,32.7786,-117.01749,(619) 469-8984,3808137,67 of 187,911e3b6416132a251cbfce708860aa33
Pho Vien Dong,Vietnamese,Chula Vista,CA,United States,32.64783,-116.96622,619 216 4388,4559525,104 of 393,2aafeef409ef3f31d5a9137bf02ba997
Phononmenal Noodle House,Vietnamese,San Jose,CA,United States,37.3367,-121.89406,Website,3540544,"611 of 1,898",0f31984dd91fdd62a79d7b487a9b6f3d
Saigon,Vietnamese,Sacramento,CA,United States,38.52754,-121.44375,(916) 457-5580,467800,"645 of 1,732",49272334cadf10984e61dfe37c3841d7
Saigon Express,Vietnamese,Berkeley,CA,United States,37.871754,-122.26773,510-486-1778,378749,213 of 592,ca35ada3611b072da14c68178997990e